{
"type": "FeatureCollection",
"name": "amazon_roof",
"crs": { "type": "name", "properties": { "name": "urn:ogc:def:crs:OGC:1.3:CRS84" } },
"features": [
{ "type": "Feature", "properties": { "element": "way", "id": 1071709973, "building": "yes", "amenity": "post_depot", "brand": "Amazon", "brand:wikidata": "Q3884", "check_date": null, "hgv": null, "name": null, "addr:city": "Clear Brook", "addr:housenumber": "165", "addr:postcode": "22624", "addr:state": "VA", "addr:street": "Business Boulevard", "operator": "Amazon", "operator:type": "private", "operator:wikidata": "Q3884", "fuel:diesel": null, "fuel:octane_87": null, "fuel:octane_89": null, "fuel:octane_93": null, "layer": null, "self_service": null, "shop": null, "addr:county": null, "source": null, "ele": null, "gnis:feature_id": null, "religion": null, "addr:unit": null, "area_m2": 96718.951074801313 }, "geometry": { "type": "Polygon", "coordinates": [ [ [ -78.0759837, 39.291041300000018 ], [ -78.0783287, 39.2864796 ], [ -78.080238800000018, 39.2870678 ], [ -78.0778928, 39.2916293 ], [ -78.0759837, 39.291041300000018 ] ] ] } }
]
}
