{
"type": "FeatureCollection",
"name": "exposed_buildings",
"crs": { "type": "name", "properties": { "name": "urn:ogc:def:crs:OGC:1.3:CRS84" } },
"features": [
{ "type": "Feature", "properties": { "element": "way", "id": 302125909, "building": "house", "amenity": null, "brand": null, "brand:wikidata": null, "check_date": null, "hgv": null, "name": null, "addr:city": null, "addr:housenumber": null, "addr:postcode": null, "addr:state": null, "addr:street": null, "operator": null, "operator:type": null, "operator:wikidata": null, "fuel:diesel": null, "fuel:octane_87": null, "fuel:octane_89": null, "fuel:octane_93": null, "layer": null, "self_service": null, "shop": null, "addr:county": null, "source": null, "ele": null, "gnis:feature_id": null, "religion": null, "addr:unit": null }, "geometry": { "type": "Polygon", "coordinates": [ [ [ -78.0645512, 39.3115815 ], [ -78.0645968, 39.3114528 ], [ -78.0644493, 39.3114217 ], [ -78.0644037, 39.311564899999986 ], [ -78.0645512, 39.3115815 ] ] ] } },
{ "type": "Feature", "properties": { "element": "way", "id": 302125910, "building": "house", "amenity": null, "brand": null, "brand:wikidata": null, "check_date": null, "hgv": null, "name": null, "addr:city": null, "addr:housenumber": null, "addr:postcode": null, "addr:state": null, "addr:street": null, "operator": null, "operator:type": null, "operator:wikidata": null, "fuel:diesel": null, "fuel:octane_87": null, "fuel:octane_89": null, "fuel:octane_93": null, "layer": null, "self_service": null, "shop": null, "addr:county": null, "source": null, "ele": null, "gnis:feature_id": null, "religion": null, "addr:unit": null }, "geometry": { "type": "Polygon", "coordinates": [ [ [ -78.0646719, 39.3112744 ], [ -78.064739, 39.311089699999982 ], [ -78.0646558, 39.3110648 ], [ -78.0645807, 39.311237 ], [ -78.0646719, 39.3112744 ] ] ] } },
{ "type": "Feature", "properties": { "element": "way", "id": 302125923, "building": "house", "amenity": null, "brand": null, "brand:wikidata": null, "check_date": null, "hgv": null, "name": null, "addr:city": null, "addr:housenumber": null, "addr:postcode": null, "addr:state": null, "addr:street": null, "operator": null, "operator:type": null, "operator:wikidata": null, "fuel:diesel": null, "fuel:octane_87": null, "fuel:octane_89": null, "fuel:octane_93": null, "layer": null, "self_service": null, "shop": null, "addr:county": null, "source": null, "ele": null, "gnis:feature_id": null, "religion": null, "addr:unit": null }, "geometry": { "type": "Polygon", "coordinates": [ [ [ -78.065034, 39.3104525 ], [ -78.065152, 39.3102533 ], [ -78.0649991, 39.3102035 ], [ -78.064916, 39.3103861 ], [ -78.065034, 39.3104525 ] ] ] } },
{ "type": "Feature", "properties": { "element": "way", "id": 302125926, "building": "house", "amenity": null, "brand": null, "brand:wikidata": null, "check_date": null, "hgv": null, "name": null, "addr:city": null, "addr:housenumber": null, "addr:postcode": null, "addr:state": null, "addr:street": null, "operator": null, "operator:type": null, "operator:wikidata": null, "fuel:diesel": null, "fuel:octane_87": null, "fuel:octane_89": null, "fuel:octane_93": null, "layer": null, "self_service": null, "shop": null, "addr:county": null, "source": null, "ele": null, "gnis:feature_id": null, "religion": null, "addr:unit": null }, "geometry": { "type": "Polygon", "coordinates": [ [ [ -78.0652379, 39.3100707 ], [ -78.0653317, 39.3099109 ], [ -78.0652244, 39.3098735 ], [ -78.065144, 39.3100354 ], [ -78.0652379, 39.3100707 ] ] ] } },
{ "type": "Feature", "properties": { "element": "way", "id": 302125928, "building": "house", "amenity": null, "brand": null, "brand:wikidata": null, "check_date": null, "hgv": null, "name": null, "addr:city": null, "addr:housenumber": null, "addr:postcode": null, "addr:state": null, "addr:street": null, "operator": null, "operator:type": null, "operator:wikidata": null, "fuel:diesel": null, "fuel:octane_87": null, "fuel:octane_89": null, "fuel:octane_93": null, "layer": null, "self_service": null, "shop": null, "addr:county": null, "source": null, "ele": null, "gnis:feature_id": null, "religion": null, "addr:unit": null }, "geometry": { "type": "Polygon", "coordinates": [ [ [ -78.0654149, 39.3096743 ], [ -78.0654685, 39.3095685 ], [ -78.0655275, 39.3095788 ], [ -78.0655597, 39.3095 ], [ -78.0653961, 39.3094543 ], [ -78.0653425, 39.3096432 ], [ -78.0654149, 39.3096743 ] ] ] } },
{ "type": "Feature", "properties": { "element": "way", "id": 302125931, "building": "house", "amenity": null, "brand": null, "brand:wikidata": null, "check_date": null, "hgv": null, "name": null, "addr:city": null, "addr:housenumber": null, "addr:postcode": null, "addr:state": null, "addr:street": null, "operator": null, "operator:type": null, "operator:wikidata": null, "fuel:diesel": null, "fuel:octane_87": null, "fuel:octane_89": null, "fuel:octane_93": null, "layer": null, "self_service": null, "shop": null, "addr:county": null, "source": null, "ele": null, "gnis:feature_id": null, "religion": null, "addr:unit": null }, "geometry": { "type": "Polygon", "coordinates": [ [ [ -78.0656321, 39.3092634 ], [ -78.0656697, 39.3091638 ], [ -78.065726, 39.309182499999984 ], [ -78.0657636, 39.309105700000011 ], [ -78.0656, 39.3090496 ], [ -78.0655114, 39.3092385 ], [ -78.0656321, 39.3092634 ] ] ] } },
{ "type": "Feature", "properties": { "element": "way", "id": 302125940, "building": "house", "amenity": null, "brand": null, "brand:wikidata": null, "check_date": null, "hgv": null, "name": null, "addr:city": null, "addr:housenumber": null, "addr:postcode": null, "addr:state": null, "addr:street": null, "operator": null, "operator:type": null, "operator:wikidata": null, "fuel:diesel": null, "fuel:octane_87": null, "fuel:octane_89": null, "fuel:octane_93": null, "layer": null, "self_service": null, "shop": null, "addr:county": null, "source": null, "ele": null, "gnis:feature_id": null, "religion": null, "addr:unit": null }, "geometry": { "type": "Polygon", "coordinates": [ [ [ -78.0659138, 39.308792299999986 ], [ -78.0660318, 39.3085868 ], [ -78.0658574, 39.308528699999982 ], [ -78.0658279, 39.3087778 ], [ -78.0659138, 39.308792299999986 ] ] ] } },
{ "type": "Feature", "properties": { "element": "way", "id": 302125941, "building": "house", "amenity": null, "brand": null, "brand:wikidata": null, "check_date": null, "hgv": null, "name": null, "addr:city": null, "addr:housenumber": null, "addr:postcode": null, "addr:state": null, "addr:street": null, "operator": null, "operator:type": null, "operator:wikidata": null, "fuel:diesel": null, "fuel:octane_87": null, "fuel:octane_89": null, "fuel:octane_93": null, "layer": null, "self_service": null, "shop": null, "addr:county": null, "source": null, "ele": null, "gnis:feature_id": null, "religion": null, "addr:unit": null }, "geometry": { "type": "Polygon", "coordinates": [ [ [ -78.0660693, 39.3083689 ], [ -78.0662383, 39.3081821 ], [ -78.0660801, 39.3081178 ], [ -78.0659916, 39.3083316 ], [ -78.0660693, 39.3083689 ] ] ] } },
{ "type": "Feature", "properties": { "element": "way", "id": 302125942, "building": "house", "amenity": null, "brand": null, "brand:wikidata": null, "check_date": null, "hgv": null, "name": null, "addr:city": null, "addr:housenumber": null, "addr:postcode": null, "addr:state": null, "addr:street": null, "operator": null, "operator:type": null, "operator:wikidata": null, "fuel:diesel": null, "fuel:octane_87": null, "fuel:octane_89": null, "fuel:octane_93": null, "layer": null, "self_service": null, "shop": null, "addr:county": null, "source": null, "ele": null, "gnis:feature_id": null, "religion": null, "addr:unit": null }, "geometry": { "type": "Polygon", "coordinates": [ [ [ -78.0662812, 39.3080825 ], [ -78.0664019, 39.3078688 ], [ -78.0662946, 39.3078356 ], [ -78.06619, 39.3080452 ], [ -78.0662812, 39.3080825 ] ] ] } },
{ "type": "Feature", "properties": { "element": "way", "id": 302125949, "building": "house", "amenity": null, "brand": null, "brand:wikidata": null, "check_date": null, "hgv": null, "name": null, "addr:city": null, "addr:housenumber": null, "addr:postcode": null, "addr:state": null, "addr:street": null, "operator": null, "operator:type": null, "operator:wikidata": null, "fuel:diesel": null, "fuel:octane_87": null, "fuel:octane_89": null, "fuel:octane_93": null, "layer": null, "self_service": null, "shop": null, "addr:county": null, "source": null, "ele": null, "gnis:feature_id": null, "religion": null, "addr:unit": null }, "geometry": { "type": "Polygon", "coordinates": [ [ [ -78.066469, 39.3077567 ], [ -78.0665977, 39.3075201 ], [ -78.0664744, 39.3074848 ], [ -78.0663671, 39.3077235 ], [ -78.066469, 39.3077567 ] ] ] } },
{ "type": "Feature", "properties": { "element": "way", "id": 302125950, "building": "house", "amenity": null, "brand": null, "brand:wikidata": null, "check_date": null, "hgv": null, "name": null, "addr:city": null, "addr:housenumber": null, "addr:postcode": null, "addr:state": null, "addr:street": null, "operator": null, "operator:type": null, "operator:wikidata": null, "fuel:diesel": null, "fuel:octane_87": null, "fuel:octane_89": null, "fuel:octane_93": null, "layer": null, "self_service": null, "shop": null, "addr:county": null, "source": null, "ele": null, "gnis:feature_id": null, "religion": null, "addr:unit": null }, "geometry": { "type": "Polygon", "coordinates": [ [ [ -78.0666299, 39.3073209 ], [ -78.0666809, 39.3071922 ], [ -78.0667533, 39.3072067 ], [ -78.0667855, 39.3071424 ], [ -78.0666246, 39.3070863 ], [ -78.0665307, 39.307285599999986 ], [ -78.0666299, 39.3073209 ] ] ] } },
{ "type": "Feature", "properties": { "element": "way", "id": 302125951, "building": "house", "amenity": null, "brand": null, "brand:wikidata": null, "check_date": null, "hgv": null, "name": null, "addr:city": null, "addr:housenumber": null, "addr:postcode": null, "addr:state": null, "addr:street": null, "operator": null, "operator:type": null, "operator:wikidata": null, "fuel:diesel": null, "fuel:octane_87": null, "fuel:octane_89": null, "fuel:octane_93": null, "layer": null, "self_service": null, "shop": null, "addr:county": null, "source": null, "ele": null, "gnis:feature_id": null, "religion": null, "addr:unit": null }, "geometry": { "type": "Polygon", "coordinates": [ [ [ -78.0668365, 39.3070241 ], [ -78.0669706, 39.3067792 ], [ -78.0668472, 39.306746 ], [ -78.0667265, 39.3069992 ], [ -78.0668365, 39.3070241 ] ] ] } },
{ "type": "Feature", "properties": { "element": "way", "id": 302125952, "building": "house", "amenity": null, "brand": null, "brand:wikidata": null, "check_date": null, "hgv": null, "name": null, "addr:city": null, "addr:housenumber": null, "addr:postcode": null, "addr:state": null, "addr:street": null, "operator": null, "operator:type": null, "operator:wikidata": null, "fuel:diesel": null, "fuel:octane_87": null, "fuel:octane_89": null, "fuel:octane_93": null, "layer": null, "self_service": null, "shop": null, "addr:county": null, "source": null, "ele": null, "gnis:feature_id": null, "religion": null, "addr:unit": null }, "geometry": { "type": "Polygon", "coordinates": [ [ [ -78.0673809, 39.30735820000001 ], [ -78.067448, 39.3072482 ], [ -78.067212, 39.3071569 ], [ -78.0671449, 39.3072565 ], [ -78.0673809, 39.30735820000001 ] ] ] } },
{ "type": "Feature", "properties": { "element": "way", "id": 302125953, "building": "house", "amenity": null, "brand": null, "brand:wikidata": null, "check_date": null, "hgv": null, "name": null, "addr:city": null, "addr:housenumber": null, "addr:postcode": null, "addr:state": null, "addr:street": null, "operator": null, "operator:type": null, "operator:wikidata": null, "fuel:diesel": null, "fuel:octane_87": null, "fuel:octane_89": null, "fuel:octane_93": null, "layer": null, "self_service": null, "shop": null, "addr:county": null, "source": null, "ele": null, "gnis:feature_id": null, "religion": null, "addr:unit": null }, "geometry": { "type": "Polygon", "coordinates": [ [ [ -78.067794, 39.3075097 ], [ -78.0678369, 39.3074412 ], [ -78.067592800000014, 39.3073271 ], [ -78.0675419, 39.307408 ], [ -78.067794, 39.3075097 ] ] ] } },
{ "type": "Feature", "properties": { "element": "way", "id": 302125954, "building": "house", "amenity": null, "brand": null, "brand:wikidata": null, "check_date": null, "hgv": null, "name": null, "addr:city": null, "addr:housenumber": null, "addr:postcode": null, "addr:state": null, "addr:street": null, "operator": null, "operator:type": null, "operator:wikidata": null, "fuel:diesel": null, "fuel:octane_87": null, "fuel:octane_89": null, "fuel:octane_93": null, "layer": null, "self_service": null, "shop": null, "addr:county": null, "source": null, "ele": null, "gnis:feature_id": null, "religion": null, "addr:unit": null }, "geometry": { "type": "Polygon", "coordinates": [ [ [ -78.0677457, 39.3068248 ], [ -78.0678128, 39.3066899 ], [ -78.067735, 39.3066692 ], [ -78.0676974, 39.3067252 ], [ -78.0675633, 39.306689899999988 ], [ -78.0675258, 39.306756399999983 ], [ -78.0677457, 39.3068248 ] ] ] } },
{ "type": "Feature", "properties": { "element": "way", "id": 302125955, "building": "house", "amenity": null, "brand": null, "brand:wikidata": null, "check_date": null, "hgv": null, "name": null, "addr:city": null, "addr:housenumber": null, "addr:postcode": null, "addr:state": null, "addr:street": null, "operator": null, "operator:type": null, "operator:wikidata": null, "fuel:diesel": null, "fuel:octane_87": null, "fuel:octane_89": null, "fuel:octane_93": null, "layer": null, "self_service": null, "shop": null, "addr:county": null, "source": null, "ele": null, "gnis:feature_id": null, "religion": null, "addr:unit": null }, "geometry": { "type": "Polygon", "coordinates": [ [ [ -78.0670564, 39.3065882 ], [ -78.0671664, 39.3063828 ], [ -78.0670671, 39.3063516 ], [ -78.0669518, 39.306555 ], [ -78.0670564, 39.3065882 ] ] ] } },
{ "type": "Feature", "properties": { "element": "way", "id": 302125956, "building": "house", "amenity": null, "brand": null, "brand:wikidata": null, "check_date": null, "hgv": null, "name": null, "addr:city": null, "addr:housenumber": null, "addr:postcode": null, "addr:state": null, "addr:street": null, "operator": null, "operator:type": null, "operator:wikidata": null, "fuel:diesel": null, "fuel:octane_87": null, "fuel:octane_89": null, "fuel:octane_93": null, "layer": null, "self_service": null, "shop": null, "addr:county": null, "source": null, "ele": null, "gnis:feature_id": null, "religion": null, "addr:unit": null }, "geometry": { "type": "Polygon", "coordinates": [ [ [ -78.0671986, 39.3062956 ], [ -78.0673702, 39.306196 ], [ -78.0672897, 39.3060964 ], [ -78.0671154, 39.3062043 ], [ -78.0671986, 39.3062956 ] ] ] } },
{ "type": "Feature", "properties": { "element": "way", "id": 302125962, "building": "house", "amenity": null, "brand": null, "brand:wikidata": null, "check_date": null, "hgv": null, "name": null, "addr:city": null, "addr:housenumber": null, "addr:postcode": null, "addr:state": null, "addr:street": null, "operator": null, "operator:type": null, "operator:wikidata": null, "fuel:diesel": null, "fuel:octane_87": null, "fuel:octane_89": null, "fuel:octane_93": null, "layer": null, "self_service": null, "shop": null, "addr:county": null, "source": null, "ele": null, "gnis:feature_id": null, "religion": null, "addr:unit": null }, "geometry": { "type": "Polygon", "coordinates": [ [ [ -78.0686899, 39.3071341 ], [ -78.0687623, 39.3070345 ], [ -78.0686013, 39.306968 ], [ -78.068545, 39.3070656 ], [ -78.0686899, 39.3071341 ] ] ] } },
{ "type": "Feature", "properties": { "element": "way", "id": 302125963, "building": "house", "amenity": null, "brand": null, "brand:wikidata": null, "check_date": null, "hgv": null, "name": null, "addr:city": null, "addr:housenumber": null, "addr:postcode": null, "addr:state": null, "addr:street": null, "operator": null, "operator:type": null, "operator:wikidata": null, "fuel:diesel": null, "fuel:octane_87": null, "fuel:octane_89": null, "fuel:octane_93": null, "layer": null, "self_service": null, "shop": null, "addr:county": null, "source": null, "ele": null, "gnis:feature_id": null, "religion": null, "addr:unit": null }, "geometry": { "type": "Polygon", "coordinates": [ [ [ -78.0685584, 39.3074018 ], [ -78.0686121, 39.3073084 ], [ -78.0684806, 39.307269 ], [ -78.068419, 39.307358199999989 ], [ -78.0685584, 39.3074018 ] ] ] } },
{ "type": "Feature", "properties": { "element": "way", "id": 302125964, "building": "house", "amenity": null, "brand": null, "brand:wikidata": null, "check_date": null, "hgv": null, "name": null, "addr:city": null, "addr:housenumber": null, "addr:postcode": null, "addr:state": null, "addr:street": null, "operator": null, "operator:type": null, "operator:wikidata": null, "fuel:diesel": null, "fuel:octane_87": null, "fuel:octane_89": null, "fuel:octane_93": null, "layer": null, "self_service": null, "shop": null, "addr:county": null, "source": null, "ele": null, "gnis:feature_id": null, "religion": null, "addr:unit": null }, "geometry": { "type": "Polygon", "coordinates": [ [ [ -78.0681346, 39.3069618 ], [ -78.0681963, 39.3068663 ], [ -78.0681051, 39.3067771 ], [ -78.0680274, 39.3067522 ], [ -78.0679308, 39.306903699999985 ], [ -78.0681346, 39.3069618 ] ] ] } },
{ "type": "Feature", "properties": { "element": "way", "id": 302125965, "building": "house", "amenity": null, "brand": null, "brand:wikidata": null, "check_date": null, "hgv": null, "name": null, "addr:city": null, "addr:housenumber": null, "addr:postcode": null, "addr:state": null, "addr:street": null, "operator": null, "operator:type": null, "operator:wikidata": null, "fuel:diesel": null, "fuel:octane_87": null, "fuel:octane_89": null, "fuel:octane_93": null, "layer": null, "self_service": null, "shop": null, "addr:county": null, "source": null, "ele": null, "gnis:feature_id": null, "religion": null, "addr:unit": null }, "geometry": { "type": "Polygon", "coordinates": [ [ [ -78.0693631, 39.307381 ], [ -78.0694194, 39.3072939 ], [ -78.0692907, 39.3072461 ], [ -78.069229, 39.30733750000001 ], [ -78.0693631, 39.307381 ] ] ] } },
{ "type": "Feature", "properties": { "element": "way", "id": 302125966, "building": "house", "amenity": null, "brand": null, "brand:wikidata": null, "check_date": null, "hgv": null, "name": null, "addr:city": null, "addr:housenumber": null, "addr:postcode": null, "addr:state": null, "addr:street": null, "operator": null, "operator:type": null, "operator:wikidata": null, "fuel:diesel": null, "fuel:octane_87": null, "fuel:octane_89": null, "fuel:octane_93": null, "layer": null, "self_service": null, "shop": null, "addr:county": null, "source": null, "ele": null, "gnis:feature_id": null, "religion": null, "addr:unit": null }, "geometry": { "type": "Polygon", "coordinates": [ [ [ -78.0701436, 39.3070594 ], [ -78.0702321, 39.3069162 ], [ -78.0700739, 39.3068477 ], [ -78.0700202, 39.3069245 ], [ -78.0701436, 39.3070594 ] ] ] } },
{ "type": "Feature", "properties": { "element": "way", "id": 302125973, "building": "house", "amenity": null, "brand": null, "brand:wikidata": null, "check_date": null, "hgv": null, "name": null, "addr:city": null, "addr:housenumber": null, "addr:postcode": null, "addr:state": null, "addr:street": null, "operator": null, "operator:type": null, "operator:wikidata": null, "fuel:diesel": null, "fuel:octane_87": null, "fuel:octane_89": null, "fuel:octane_93": null, "layer": null, "self_service": null, "shop": null, "addr:county": null, "source": null, "ele": null, "gnis:feature_id": null, "religion": null, "addr:unit": null }, "geometry": { "type": "Polygon", "coordinates": [ [ [ -78.0712836, 39.3064305 ], [ -78.0713211, 39.3063537 ], [ -78.071187, 39.306306 ], [ -78.0711226, 39.3063807 ], [ -78.0712836, 39.3064305 ] ] ] } },
{ "type": "Feature", "properties": { "element": "way", "id": 1071709973, "building": "yes", "amenity": "post_depot", "brand": "Amazon", "brand:wikidata": "Q3884", "check_date": null, "hgv": null, "name": null, "addr:city": "Clear Brook", "addr:housenumber": "165", "addr:postcode": "22624", "addr:state": "VA", "addr:street": "Business Boulevard", "operator": "Amazon", "operator:type": "private", "operator:wikidata": "Q3884", "fuel:diesel": null, "fuel:octane_87": null, "fuel:octane_89": null, "fuel:octane_93": null, "layer": null, "self_service": null, "shop": null, "addr:county": null, "source": null, "ele": null, "gnis:feature_id": null, "religion": null, "addr:unit": null }, "geometry": { "type": "Polygon", "coordinates": [ [ [ -78.0778928, 39.2916293 ], [ -78.080238800000018, 39.2870678 ], [ -78.0783287, 39.2864796 ], [ -78.0759837, 39.291041300000018 ], [ -78.0778928, 39.2916293 ] ] ] } },
{ "type": "Feature", "properties": { "element": "way", "id": 1149343131, "building": "retail", "amenity": null, "brand": null, "brand:wikidata": null, "check_date": null, "hgv": null, "name": null, "addr:city": null, "addr:housenumber": null, "addr:postcode": null, "addr:state": null, "addr:street": null, "operator": null, "operator:type": null, "operator:wikidata": null, "fuel:diesel": null, "fuel:octane_87": null, "fuel:octane_89": null, "fuel:octane_93": null, "layer": null, "self_service": null, "shop": null, "addr:county": null, "source": null, "ele": null, "gnis:feature_id": null, "religion": null, "addr:unit": null }, "geometry": { "type": "Polygon", "coordinates": [ [ [ -78.0816743, 39.291158 ], [ -78.0813352, 39.291775 ], [ -78.081136, 39.2917095 ], [ -78.0811522, 39.2916799 ], [ -78.0814046, 39.2912203 ], [ -78.0813384, 39.2911986 ], [ -78.0813711, 39.2911391 ], [ -78.0814087, 39.2910706 ], [ -78.0816743, 39.291158 ] ] ] } },
{ "type": "Feature", "properties": { "element": "way", "id": 1149343135, "building": "service", "amenity": null, "brand": null, "brand:wikidata": null, "check_date": null, "hgv": null, "name": null, "addr:city": null, "addr:housenumber": null, "addr:postcode": null, "addr:state": null, "addr:street": null, "operator": null, "operator:type": null, "operator:wikidata": null, "fuel:diesel": null, "fuel:octane_87": null, "fuel:octane_89": null, "fuel:octane_93": null, "layer": null, "self_service": null, "shop": null, "addr:county": null, "source": null, "ele": null, "gnis:feature_id": null, "religion": null, "addr:unit": null }, "geometry": { "type": "Polygon", "coordinates": [ [ [ -78.0814614, 39.2919976 ], [ -78.0814127, 39.291981099999987 ], [ -78.081363600000017, 39.2919645 ], [ -78.0813431, 39.29200070000001 ], [ -78.081441, 39.2920338 ], [ -78.0814614, 39.2919976 ] ] ] } },
{ "type": "Feature", "properties": { "element": "way", "id": 1149343178, "building": "retail", "amenity": null, "brand": null, "brand:wikidata": null, "check_date": null, "hgv": null, "name": null, "addr:city": null, "addr:housenumber": null, "addr:postcode": null, "addr:state": null, "addr:street": null, "operator": null, "operator:type": null, "operator:wikidata": null, "fuel:diesel": null, "fuel:octane_87": null, "fuel:octane_89": null, "fuel:octane_93": null, "layer": null, "self_service": null, "shop": null, "addr:county": null, "source": null, "ele": null, "gnis:feature_id": null, "religion": null, "addr:unit": null }, "geometry": { "type": "Polygon", "coordinates": [ [ [ -78.0822258, 39.2896262 ], [ -78.0820893, 39.2898801 ], [ -78.0821955, 39.289914300000014 ], [ -78.0822247, 39.28986 ], [ -78.0822783, 39.2898773 ], [ -78.0823856, 39.2896776 ], [ -78.0822258, 39.2896262 ] ] ] } },
{ "type": "Feature", "properties": { "element": "way", "id": 1149343188, "building": "roof", "amenity": "fuel", "brand": "Shell", "brand:wikidata": "Q110716465", "check_date": null, "hgv": null, "name": "Shell", "addr:city": "Clear Brook", "addr:housenumber": "120", "addr:postcode": "22624", "addr:state": "VA", "addr:street": "Business Boulevard", "operator": null, "operator:type": null, "operator:wikidata": null, "fuel:diesel": "yes", "fuel:octane_87": "yes", "fuel:octane_89": "yes", "fuel:octane_93": "yes", "layer": "1", "self_service": "yes", "shop": null, "addr:county": null, "source": null, "ele": null, "gnis:feature_id": null, "religion": null, "addr:unit": null }, "geometry": { "type": "Polygon", "coordinates": [ [ [ -78.0827561, 39.2895908 ], [ -78.0826606, 39.2895595 ], [ -78.082356, 39.290117 ], [ -78.0824513, 39.2901482 ], [ -78.0827561, 39.2895908 ] ] ] } },
{ "type": "Feature", "properties": { "element": "way", "id": 1149343199, "building": "yes", "amenity": null, "brand": "Tiger Mart", "brand:wikidata": "Q57643977", "check_date": null, "hgv": null, "name": "Tiger Mart", "addr:city": null, "addr:housenumber": null, "addr:postcode": null, "addr:state": null, "addr:street": null, "operator": null, "operator:type": null, "operator:wikidata": null, "fuel:diesel": null, "fuel:octane_87": null, "fuel:octane_89": null, "fuel:octane_93": null, "layer": null, "self_service": null, "shop": "convenience", "addr:county": null, "source": null, "ele": null, "gnis:feature_id": null, "religion": null, "addr:unit": null }, "geometry": { "type": "Polygon", "coordinates": [ [ [ -78.0834318, 39.2900525 ], [ -78.083336700000018, 39.2900819 ], [ -78.0834396, 39.2902813 ], [ -78.0836016, 39.2902312 ], [ -78.0835642, 39.2901588 ], [ -78.0834973, 39.2901795 ], [ -78.0834318, 39.2900525 ] ] ] } },
{ "type": "Feature", "properties": { "element": "way", "id": 1149343200, "building": "roof", "amenity": "fuel", "brand": "Exxon", "brand:wikidata": "Q109675651", "check_date": null, "hgv": null, "name": "Exxon", "addr:city": null, "addr:housenumber": null, "addr:postcode": null, "addr:state": null, "addr:street": null, "operator": null, "operator:type": null, "operator:wikidata": null, "fuel:diesel": null, "fuel:octane_87": null, "fuel:octane_89": null, "fuel:octane_93": null, "layer": "1", "self_service": "yes", "shop": null, "addr:county": null, "source": null, "ele": null, "gnis:feature_id": null, "religion": null, "addr:unit": null }, "geometry": { "type": "Polygon", "coordinates": [ [ [ -78.0833245, 39.290215 ], [ -78.0832722, 39.2901114 ], [ -78.083114, 39.2901593 ], [ -78.083166300000016, 39.2902629 ], [ -78.0833245, 39.290215 ] ] ] } },
{ "type": "Feature", "properties": { "element": "way", "id": 1351699771, "building": "yes", "amenity": null, "brand": null, "brand:wikidata": null, "check_date": null, "hgv": null, "name": null, "addr:city": null, "addr:housenumber": "4504", "addr:postcode": null, "addr:state": "VA", "addr:street": "Martinsburg Pike", "operator": null, "operator:type": null, "operator:wikidata": null, "fuel:diesel": null, "fuel:octane_87": null, "fuel:octane_89": null, "fuel:octane_93": null, "layer": null, "self_service": null, "shop": null, "addr:county": "Frederick County", "source": "esri/Virginia_building", "ele": null, "gnis:feature_id": null, "religion": null, "addr:unit": null }, "geometry": { "type": "Polygon", "coordinates": [ [ [ -78.0841382, 39.2856425 ], [ -78.0840013, 39.2856206 ], [ -78.0840145, 39.285571 ], [ -78.0840582, 39.285578 ], [ -78.0840842, 39.2854799 ], [ -78.0842037, 39.285499 ], [ -78.084191, 39.2855467 ], [ -78.0841647, 39.2855425 ], [ -78.0841382, 39.2856425 ] ] ] } },
{ "type": "Feature", "properties": { "element": "way", "id": 1351699772, "building": "yes", "amenity": null, "brand": null, "brand:wikidata": null, "check_date": null, "hgv": null, "name": null, "addr:city": null, "addr:housenumber": "4514", "addr:postcode": null, "addr:state": "VA", "addr:street": "Martinsburg Pike", "operator": null, "operator:type": null, "operator:wikidata": null, "fuel:diesel": null, "fuel:octane_87": null, "fuel:octane_89": null, "fuel:octane_93": null, "layer": null, "self_service": null, "shop": null, "addr:county": "Frederick County", "source": "esri/Virginia_building", "ele": null, "gnis:feature_id": null, "religion": null, "addr:unit": null }, "geometry": { "type": "Polygon", "coordinates": [ [ [ -78.084119500000014, 39.2857299 ], [ -78.0840719, 39.2859 ], [ -78.0839583, 39.2858809 ], [ -78.084006, 39.2857107 ], [ -78.084119500000014, 39.2857299 ] ] ] } },
{ "type": "Feature", "properties": { "element": "way", "id": 1351699774, "building": "yes", "amenity": null, "brand": null, "brand:wikidata": null, "check_date": null, "hgv": null, "name": null, "addr:city": null, "addr:housenumber": "4532", "addr:postcode": null, "addr:state": "VA", "addr:street": "Martinsburg Pike", "operator": null, "operator:type": null, "operator:wikidata": null, "fuel:diesel": null, "fuel:octane_87": null, "fuel:octane_89": null, "fuel:octane_93": null, "layer": null, "self_service": null, "shop": null, "addr:county": "Frederick County", "source": "esri/Virginia_building", "ele": null, "gnis:feature_id": null, "religion": null, "addr:unit": null }, "geometry": { "type": "Polygon", "coordinates": [ [ [ -78.0837921, 39.286326599999988 ], [ -78.083847, 39.286159 ], [ -78.0839903, 39.2861873 ], [ -78.0839353, 39.286355 ], [ -78.0837921, 39.286326599999988 ] ] ] } },
{ "type": "Feature", "properties": { "element": "way", "id": 1351699775, "building": "yes", "amenity": null, "brand": null, "brand:wikidata": null, "check_date": null, "hgv": null, "name": null, "addr:city": null, "addr:housenumber": "4600", "addr:postcode": null, "addr:state": "VA", "addr:street": "Martinsburg Pike", "operator": null, "operator:type": null, "operator:wikidata": null, "fuel:diesel": null, "fuel:octane_87": null, "fuel:octane_89": null, "fuel:octane_93": null, "layer": null, "self_service": null, "shop": null, "addr:county": "Frederick County", "source": "esri/Virginia_building", "ele": null, "gnis:feature_id": null, "religion": null, "addr:unit": null }, "geometry": { "type": "Polygon", "coordinates": [ [ [ -78.083294900000013, 39.2883204 ], [ -78.0833018, 39.2883025 ], [ -78.0832681, 39.2882947 ], [ -78.0832635, 39.2882936 ], [ -78.0832751, 39.288263199999989 ], [ -78.0832573, 39.2882591 ], [ -78.0832546, 39.2882585 ], [ -78.0832753, 39.2882039 ], [ -78.0832983, 39.2882092 ], [ -78.083304, 39.2881943 ], [ -78.0834366, 39.2882249 ], [ -78.0834225, 39.288262 ], [ -78.0834265, 39.2882666 ], [ -78.0834286, 39.2882657 ], [ -78.0834733, 39.288244699999986 ], [ -78.0834767, 39.2882432 ], [ -78.0834842, 39.2882541 ], [ -78.083435, 39.2882781 ], [ -78.083409, 39.2883468 ], [ -78.083294900000013, 39.2883204 ] ] ] } },
{ "type": "Feature", "properties": { "element": "way", "id": 1351699776, "building": "yes", "amenity": null, "brand": null, "brand:wikidata": null, "check_date": null, "hgv": null, "name": null, "addr:city": null, "addr:housenumber": "4622", "addr:postcode": null, "addr:state": "VA", "addr:street": "Martinsburg Pike", "operator": null, "operator:type": null, "operator:wikidata": null, "fuel:diesel": null, "fuel:octane_87": null, "fuel:octane_89": null, "fuel:octane_93": null, "layer": null, "self_service": null, "shop": null, "addr:county": "Frederick County", "source": "esri/Virginia_building", "ele": null, "gnis:feature_id": null, "religion": null, "addr:unit": null }, "geometry": { "type": "Polygon", "coordinates": [ [ [ -78.0831421, 39.2889791 ], [ -78.0829758, 39.2889512 ], [ -78.0829909, 39.2888967 ], [ -78.08292520000002, 39.2888857 ], [ -78.0829281, 39.288875 ], [ -78.0829942, 39.288886099999985 ], [ -78.0830153, 39.28881 ], [ -78.0831822, 39.288838 ], [ -78.0831632, 39.2889061 ], [ -78.0831834, 39.2889095 ], [ -78.0831728, 39.2889476 ], [ -78.0831518, 39.288944 ], [ -78.0831421, 39.2889791 ] ] ] } },
{ "type": "Feature", "properties": { "element": "way", "id": 1351699777, "building": "yes", "amenity": null, "brand": null, "brand:wikidata": null, "check_date": null, "hgv": null, "name": null, "addr:city": null, "addr:housenumber": "4592", "addr:postcode": null, "addr:state": "VA", "addr:street": "Martinsburg Pike", "operator": null, "operator:type": null, "operator:wikidata": null, "fuel:diesel": null, "fuel:octane_87": null, "fuel:octane_89": null, "fuel:octane_93": null, "layer": null, "self_service": null, "shop": null, "addr:county": "Frederick County", "source": "esri/Virginia_building", "ele": null, "gnis:feature_id": null, "religion": null, "addr:unit": null }, "geometry": { "type": "Polygon", "coordinates": [ [ [ -78.083514, 39.288074 ], [ -78.0833819, 39.2880437 ], [ -78.0833989, 39.287999 ], [ -78.0834236, 39.2880047 ], [ -78.0834357, 39.287973 ], [ -78.083543, 39.2879975 ], [ -78.083514, 39.288074 ] ] ] } },
{ "type": "Feature", "properties": { "element": "way", "id": 1351699778, "building": "yes", "amenity": null, "brand": null, "brand:wikidata": null, "check_date": null, "hgv": null, "name": null, "addr:city": null, "addr:housenumber": "4586", "addr:postcode": null, "addr:state": "VA", "addr:street": "Martinsburg Pike", "operator": null, "operator:type": null, "operator:wikidata": null, "fuel:diesel": null, "fuel:octane_87": null, "fuel:octane_89": null, "fuel:octane_93": null, "layer": null, "self_service": null, "shop": null, "addr:county": "Frederick County", "source": "esri/Virginia_building", "ele": null, "gnis:feature_id": null, "religion": null, "addr:unit": null }, "geometry": { "type": "Polygon", "coordinates": [ [ [ -78.0834387, 39.2878565 ], [ -78.0834521, 39.2878158 ], [ -78.0834285, 39.2878111 ], [ -78.0834383, 39.2877813 ], [ -78.0834622, 39.2877861 ], [ -78.0834639, 39.2877807 ], [ -78.0835815, 39.2878041 ], [ -78.0835797, 39.2878096 ], [ -78.0836055, 39.2878147 ], [ -78.0835824, 39.2878851 ], [ -78.0834387, 39.2878565 ] ] ] } },
{ "type": "Feature", "properties": { "element": "way", "id": 1351699779, "building": "yes", "amenity": null, "brand": null, "brand:wikidata": null, "check_date": null, "hgv": null, "name": null, "addr:city": null, "addr:housenumber": "4578", "addr:postcode": null, "addr:state": "VA", "addr:street": "Martinsburg Pike", "operator": null, "operator:type": null, "operator:wikidata": null, "fuel:diesel": null, "fuel:octane_87": null, "fuel:octane_89": null, "fuel:octane_93": null, "layer": null, "self_service": null, "shop": null, "addr:county": "Frederick County", "source": "esri/Virginia_building", "ele": null, "gnis:feature_id": null, "religion": null, "addr:unit": null }, "geometry": { "type": "Polygon", "coordinates": [ [ [ -78.083657400000021, 39.2876598 ], [ -78.0835534, 39.2876396 ], [ -78.0835589, 39.2876225 ], [ -78.0835077, 39.2876126 ], [ -78.0835105, 39.2876041 ], [ -78.0835222, 39.287606399999987 ], [ -78.0835333, 39.2875717 ], [ -78.0835613, 39.2875771 ], [ -78.083562, 39.287575 ], [ -78.0835739, 39.2875774 ], [ -78.083583, 39.287549 ], [ -78.0836865, 39.2875691 ], [ -78.083657400000021, 39.2876598 ] ] ] } },
{ "type": "Feature", "properties": { "element": "way", "id": 1351699780, "building": "yes", "amenity": null, "brand": null, "brand:wikidata": null, "check_date": null, "hgv": null, "name": null, "addr:city": null, "addr:housenumber": "4568", "addr:postcode": null, "addr:state": "VA", "addr:street": "Martinsburg Pike", "operator": null, "operator:type": null, "operator:wikidata": null, "fuel:diesel": null, "fuel:octane_87": null, "fuel:octane_89": null, "fuel:octane_93": null, "layer": null, "self_service": null, "shop": null, "addr:county": "Frederick County", "source": "esri/Virginia_building", "ele": null, "gnis:feature_id": null, "religion": null, "addr:unit": null }, "geometry": { "type": "Polygon", "coordinates": [ [ [ -78.083728, 39.2874457 ], [ -78.0836212, 39.2874249 ], [ -78.08362480000001, 39.2874139 ], [ -78.0836183, 39.28741260000001 ], [ -78.0836292, 39.2873786 ], [ -78.083611, 39.2873751 ], [ -78.0836292, 39.2873188 ], [ -78.0836487, 39.2873226 ], [ -78.0836506, 39.2873167 ], [ -78.0836565, 39.2873178 ], [ -78.0836585, 39.2873115 ], [ -78.0837646, 39.2873322 ], [ -78.083728, 39.2874457 ] ] ] } },
{ "type": "Feature", "properties": { "element": "way", "id": 1351699781, "building": "yes", "amenity": null, "brand": null, "brand:wikidata": null, "check_date": null, "hgv": null, "name": null, "addr:city": null, "addr:housenumber": "4552", "addr:postcode": null, "addr:state": "VA", "addr:street": "Martinsburg Pike", "operator": null, "operator:type": null, "operator:wikidata": null, "fuel:diesel": null, "fuel:octane_87": null, "fuel:octane_89": null, "fuel:octane_93": null, "layer": null, "self_service": null, "shop": null, "addr:county": "Frederick County", "source": "esri/Virginia_building", "ele": null, "gnis:feature_id": null, "religion": null, "addr:unit": null }, "geometry": { "type": "Polygon", "coordinates": [ [ [ -78.0836613, 39.2871422 ], [ -78.0836879, 39.2870567 ], [ -78.0838523, 39.287087600000014 ], [ -78.0838257, 39.287173 ], [ -78.0836613, 39.2871422 ] ] ] } },
{ "type": "Feature", "properties": { "element": "way", "id": 1352623790, "building": "yes", "amenity": null, "brand": null, "brand:wikidata": null, "check_date": null, "hgv": null, "name": null, "addr:city": null, "addr:housenumber": "140", "addr:postcode": null, "addr:state": "VA", "addr:street": "Woodbine Road", "operator": null, "operator:type": null, "operator:wikidata": null, "fuel:diesel": null, "fuel:octane_87": null, "fuel:octane_89": null, "fuel:octane_93": null, "layer": null, "self_service": null, "shop": null, "addr:county": "Frederick County", "source": "esri/Virginia_building", "ele": null, "gnis:feature_id": null, "religion": null, "addr:unit": null }, "geometry": { "type": "Polygon", "coordinates": [ [ [ -78.0830621, 39.2859692 ], [ -78.0830222, 39.2859613 ], [ -78.0830169, 39.2859775 ], [ -78.0829751, 39.2859692 ], [ -78.0829803, 39.2859534 ], [ -78.0829508, 39.2859475 ], [ -78.0829535, 39.285939399999975 ], [ -78.0829328, 39.2859353 ], [ -78.0829456, 39.2858963 ], [ -78.0829656, 39.2859002 ], [ -78.0829733, 39.2858766 ], [ -78.0830852, 39.2858987 ], [ -78.0830621, 39.2859692 ] ] ] } },
{ "type": "Feature", "properties": { "element": "way", "id": 1352623791, "building": "yes", "amenity": null, "brand": null, "brand:wikidata": null, "check_date": null, "hgv": null, "name": null, "addr:city": null, "addr:housenumber": "154", "addr:postcode": null, "addr:state": "VA", "addr:street": "Woodbine Road", "operator": null, "operator:type": null, "operator:wikidata": null, "fuel:diesel": null, "fuel:octane_87": null, "fuel:octane_89": null, "fuel:octane_93": null, "layer": null, "self_service": null, "shop": null, "addr:county": "Frederick County", "source": "esri/Virginia_building", "ele": null, "gnis:feature_id": null, "religion": null, "addr:unit": null }, "geometry": { "type": "Polygon", "coordinates": [ [ [ -78.0825673, 39.2858387 ], [ -78.08241240000001, 39.2858092 ], [ -78.0824361, 39.2857339 ], [ -78.082591, 39.2857634 ], [ -78.0825673, 39.2858387 ] ] ] } },
{ "type": "Feature", "properties": { "element": "way", "id": 1352623792, "building": "yes", "amenity": null, "brand": null, "brand:wikidata": null, "check_date": null, "hgv": null, "name": null, "addr:city": null, "addr:housenumber": "160", "addr:postcode": null, "addr:state": "VA", "addr:street": "Woodbine Road", "operator": null, "operator:type": null, "operator:wikidata": null, "fuel:diesel": null, "fuel:octane_87": null, "fuel:octane_89": null, "fuel:octane_93": null, "layer": null, "self_service": null, "shop": null, "addr:county": "Frederick County", "source": "esri/Virginia_building", "ele": null, "gnis:feature_id": null, "religion": null, "addr:unit": null }, "geometry": { "type": "Polygon", "coordinates": [ [ [ -78.0822966, 39.2858104 ], [ -78.0822542, 39.2858021 ], [ -78.0822504, 39.2858138 ], [ -78.0822237, 39.285808499999987 ], [ -78.0822274, 39.2857971 ], [ -78.0821638, 39.2857846 ], [ -78.0821768, 39.285745 ], [ -78.0821999, 39.2857495 ], [ -78.0822089, 39.285722 ], [ -78.0823185, 39.2857436 ], [ -78.0822966, 39.2858104 ] ] ] } },
{ "type": "Feature", "properties": { "element": "way", "id": 1352623793, "building": "yes", "amenity": null, "brand": null, "brand:wikidata": null, "check_date": null, "hgv": null, "name": null, "addr:city": null, "addr:housenumber": "166", "addr:postcode": null, "addr:state": "VA", "addr:street": "Woodbine Road", "operator": null, "operator:type": null, "operator:wikidata": null, "fuel:diesel": null, "fuel:octane_87": null, "fuel:octane_89": null, "fuel:octane_93": null, "layer": null, "self_service": null, "shop": null, "addr:county": "Frederick County", "source": "esri/Virginia_building", "ele": null, "gnis:feature_id": null, "religion": null, "addr:unit": null }, "geometry": { "type": "Polygon", "coordinates": [ [ [ -78.0820404, 39.2857604 ], [ -78.082001, 39.2857524 ], [ -78.0819963, 39.2857664 ], [ -78.0819594, 39.285759 ], [ -78.081964, 39.2857453 ], [ -78.0819281, 39.2857381 ], [ -78.0819328, 39.285724099999989 ], [ -78.081911, 39.2857197 ], [ -78.081931, 39.2856599 ], [ -78.0819531, 39.2856644 ], [ -78.0819539, 39.2856617 ], [ -78.0820658, 39.2856843 ], [ -78.0820404, 39.2857604 ] ] ] } },
{ "type": "Feature", "properties": { "element": "way", "id": 1352623794, "building": "yes", "amenity": null, "brand": null, "brand:wikidata": null, "check_date": null, "hgv": null, "name": null, "addr:city": null, "addr:housenumber": "174", "addr:postcode": null, "addr:state": "VA", "addr:street": "Woodbine Road", "operator": null, "operator:type": null, "operator:wikidata": null, "fuel:diesel": null, "fuel:octane_87": null, "fuel:octane_89": null, "fuel:octane_93": null, "layer": null, "self_service": null, "shop": null, "addr:county": "Frederick County", "source": "esri/Virginia_building", "ele": null, "gnis:feature_id": null, "religion": null, "addr:unit": null }, "geometry": { "type": "Polygon", "coordinates": [ [ [ -78.0817433, 39.2857201 ], [ -78.0816311, 39.285698 ], [ -78.0816395, 39.2856721 ], [ -78.0816162, 39.2856676 ], [ -78.081628, 39.2856311 ], [ -78.081651, 39.2856356 ], [ -78.0816596, 39.2856088 ], [ -78.0817737, 39.285631 ], [ -78.0817665, 39.2856533 ], [ -78.0818081, 39.2856614 ], [ -78.0817938, 39.2857055 ], [ -78.0817514, 39.2856973 ], [ -78.0817433, 39.2857201 ] ] ] } },
{ "type": "Feature", "properties": { "element": "way", "id": 1352623795, "building": "yes", "amenity": null, "brand": null, "brand:wikidata": null, "check_date": null, "hgv": null, "name": null, "addr:city": null, "addr:housenumber": "184", "addr:postcode": null, "addr:state": "VA", "addr:street": "Woodbine Road", "operator": null, "operator:type": null, "operator:wikidata": null, "fuel:diesel": null, "fuel:octane_87": null, "fuel:octane_89": null, "fuel:octane_93": null, "layer": null, "self_service": null, "shop": null, "addr:county": "Frederick County", "source": "esri/Virginia_building", "ele": null, "gnis:feature_id": null, "religion": null, "addr:unit": null }, "geometry": { "type": "Polygon", "coordinates": [ [ [ -78.081175, 39.2858089 ], [ -78.081042900000014, 39.2857829 ], [ -78.0810459, 39.2857739 ], [ -78.0810149, 39.2857678 ], [ -78.0810256, 39.2857348 ], [ -78.0810565, 39.2857409 ], [ -78.0810575, 39.285738 ], [ -78.0810809, 39.2857426 ], [ -78.0810908, 39.2857121 ], [ -78.0811193, 39.2857177 ], [ -78.0811211, 39.2857121 ], [ -78.0811363, 39.2857151 ], [ -78.0811345, 39.285720799999986 ], [ -78.0811995, 39.2857336 ], [ -78.081175, 39.2858089 ] ] ] } },
{ "type": "Feature", "properties": { "element": "way", "id": 1352623796, "building": "yes", "amenity": null, "brand": null, "brand:wikidata": null, "check_date": null, "hgv": null, "name": null, "addr:city": null, "addr:housenumber": "200", "addr:postcode": null, "addr:state": "VA", "addr:street": "Woodbine Road", "operator": null, "operator:type": null, "operator:wikidata": null, "fuel:diesel": null, "fuel:octane_87": null, "fuel:octane_89": null, "fuel:octane_93": null, "layer": null, "self_service": null, "shop": null, "addr:county": "Frederick County", "source": "esri/Virginia_building", "ele": null, "gnis:feature_id": null, "religion": null, "addr:unit": null }, "geometry": { "type": "Polygon", "coordinates": [ [ [ -78.0809677, 39.2857348 ], [ -78.0808591, 39.2857164 ], [ -78.0808726, 39.2856659 ], [ -78.0808044, 39.2856549 ], [ -78.0808217, 39.2855832 ], [ -78.0808301, 39.2855845 ], [ -78.080842, 39.2855385 ], [ -78.0808885, 39.2855461 ], [ -78.0808794, 39.285560499999988 ], [ -78.0809174, 39.2855775 ], [ -78.0809128, 39.2855982 ], [ -78.0809988, 39.2856107 ], [ -78.0809677, 39.2857348 ] ] ] } },
{ "type": "Feature", "properties": { "element": "way", "id": 1352623797, "building": "yes", "amenity": null, "brand": null, "brand:wikidata": null, "check_date": null, "hgv": null, "name": null, "addr:city": null, "addr:housenumber": "208", "addr:postcode": null, "addr:state": "VA", "addr:street": "Woodbine Road", "operator": null, "operator:type": null, "operator:wikidata": null, "fuel:diesel": null, "fuel:octane_87": null, "fuel:octane_89": null, "fuel:octane_93": null, "layer": null, "self_service": null, "shop": null, "addr:county": "Frederick County", "source": "esri/Virginia_building", "ele": null, "gnis:feature_id": null, "religion": null, "addr:unit": null }, "geometry": { "type": "Polygon", "coordinates": [ [ [ -78.080588400000011, 39.2856781 ], [ -78.0805592, 39.2856745 ], [ -78.0805542, 39.2856988 ], [ -78.080503, 39.2856924 ], [ -78.080508, 39.2856682 ], [ -78.0804149, 39.285656599999989 ], [ -78.0804182, 39.2856404 ], [ -78.0803783, 39.285635399999983 ], [ -78.080387, 39.285592800000011 ], [ -78.0804274, 39.2855978 ], [ -78.0804292, 39.2855891 ], [ -78.0806024, 39.2856106 ], [ -78.080588400000011, 39.2856781 ] ] ] } },
{ "type": "Feature", "properties": { "element": "way", "id": 1352623799, "building": "yes", "amenity": null, "brand": null, "brand:wikidata": null, "check_date": null, "hgv": null, "name": null, "addr:city": null, "addr:housenumber": "281", "addr:postcode": null, "addr:state": "VA", "addr:street": "Woodbine Road", "operator": null, "operator:type": null, "operator:wikidata": null, "fuel:diesel": null, "fuel:octane_87": null, "fuel:octane_89": null, "fuel:octane_93": null, "layer": null, "self_service": null, "shop": null, "addr:county": "Frederick County", "source": "esri/Virginia_building", "ele": null, "gnis:feature_id": null, "religion": null, "addr:unit": null }, "geometry": { "type": "Polygon", "coordinates": [ [ [ -78.077497, 39.2856776 ], [ -78.0774496, 39.2856638 ], [ -78.0774643, 39.2856333 ], [ -78.0775117, 39.285647 ], [ -78.077497, 39.2856776 ] ] ] } },
{ "type": "Feature", "properties": { "element": "way", "id": 1359207633, "building": "yes", "amenity": null, "brand": null, "brand:wikidata": null, "check_date": null, "hgv": null, "name": null, "addr:city": null, "addr:housenumber": null, "addr:postcode": null, "addr:state": null, "addr:street": null, "operator": null, "operator:type": null, "operator:wikidata": null, "fuel:diesel": null, "fuel:octane_87": null, "fuel:octane_89": null, "fuel:octane_93": null, "layer": null, "self_service": null, "shop": null, "addr:county": null, "source": "microsoft/BuildingFootprints", "ele": null, "gnis:feature_id": null, "religion": null, "addr:unit": null }, "geometry": { "type": "Polygon", "coordinates": [ [ [ -78.0750572, 39.2862269 ], [ -78.0749416, 39.2864978 ], [ -78.0751204, 39.2865435 ], [ -78.0752359, 39.2862726 ], [ -78.0750572, 39.2862269 ] ] ] } },
{ "type": "Feature", "properties": { "element": "way", "id": 1413094824, "building": "yes", "amenity": null, "brand": null, "brand:wikidata": null, "check_date": null, "hgv": null, "name": null, "addr:city": null, "addr:housenumber": null, "addr:postcode": null, "addr:state": null, "addr:street": null, "operator": null, "operator:type": null, "operator:wikidata": null, "fuel:diesel": null, "fuel:octane_87": null, "fuel:octane_89": null, "fuel:octane_93": null, "layer": null, "self_service": null, "shop": null, "addr:county": null, "source": null, "ele": null, "gnis:feature_id": null, "religion": null, "addr:unit": null }, "geometry": { "type": "Polygon", "coordinates": [ [ [ -78.0827194, 39.291093 ], [ -78.0827127, 39.2911075 ], [ -78.0826836, 39.2910994 ], [ -78.0826913, 39.2910828 ], [ -78.0826781, 39.2910791 ], [ -78.082691700000012, 39.2910498 ], [ -78.0826688, 39.2910434 ], [ -78.0827426, 39.290884 ], [ -78.0828502, 39.290914 ], [ -78.0828079, 39.2910055 ], [ -78.0829481, 39.2910446 ], [ -78.0829022, 39.291144 ], [ -78.0827194, 39.291093 ] ] ] } },
{ "type": "Feature", "properties": { "element": "way", "id": 1413095037, "building": "yes", "amenity": null, "brand": null, "brand:wikidata": null, "check_date": null, "hgv": null, "name": null, "addr:city": null, "addr:housenumber": null, "addr:postcode": null, "addr:state": null, "addr:street": null, "operator": null, "operator:type": null, "operator:wikidata": null, "fuel:diesel": null, "fuel:octane_87": null, "fuel:octane_89": null, "fuel:octane_93": null, "layer": null, "self_service": null, "shop": null, "addr:county": null, "source": null, "ele": null, "gnis:feature_id": null, "religion": null, "addr:unit": null }, "geometry": { "type": "Polygon", "coordinates": [ [ [ -78.0812552, 39.292204 ], [ -78.0812671, 39.2921841 ], [ -78.0811835, 39.2921538 ], [ -78.0811899, 39.2921431 ], [ -78.081163, 39.2921333 ], [ -78.0811817, 39.2921022 ], [ -78.0812088, 39.292112 ], [ -78.0812245, 39.292085899999989 ], [ -78.0813086, 39.2921164 ], [ -78.0813026, 39.2921264 ], [ -78.081325400000011, 39.2921347 ], [ -78.0813451, 39.2921019 ], [ -78.0813665, 39.2921096 ], [ -78.0813695, 39.2921047 ], [ -78.0814304, 39.2921267 ], [ -78.0814237, 39.2921378 ], [ -78.0814505, 39.292147499999984 ], [ -78.0813877, 39.292252 ], [ -78.0812552, 39.292204 ] ] ] } },
{ "type": "Feature", "properties": { "element": "way", "id": 1413095039, "building": "yes", "amenity": null, "brand": null, "brand:wikidata": null, "check_date": null, "hgv": null, "name": null, "addr:city": null, "addr:housenumber": null, "addr:postcode": null, "addr:state": null, "addr:street": null, "operator": null, "operator:type": null, "operator:wikidata": null, "fuel:diesel": null, "fuel:octane_87": null, "fuel:octane_89": null, "fuel:octane_93": null, "layer": null, "self_service": null, "shop": null, "addr:county": null, "source": null, "ele": null, "gnis:feature_id": null, "religion": null, "addr:unit": null }, "geometry": { "type": "Polygon", "coordinates": [ [ [ -78.0809362, 39.2922383 ], [ -78.0810033, 39.2921244 ], [ -78.0811093, 39.2921621 ], [ -78.0810422, 39.292276 ], [ -78.0809362, 39.2922383 ] ] ] } },
{ "type": "Feature", "properties": { "element": "way", "id": 1413095054, "building": "yes", "amenity": null, "brand": null, "brand:wikidata": null, "check_date": null, "hgv": null, "name": null, "addr:city": null, "addr:housenumber": null, "addr:postcode": null, "addr:state": null, "addr:street": null, "operator": null, "operator:type": null, "operator:wikidata": null, "fuel:diesel": null, "fuel:octane_87": null, "fuel:octane_89": null, "fuel:octane_93": null, "layer": null, "self_service": null, "shop": null, "addr:county": null, "source": null, "ele": null, "gnis:feature_id": null, "religion": null, "addr:unit": null }, "geometry": { "type": "Polygon", "coordinates": [ [ [ -78.081214, 39.2923521 ], [ -78.0812547, 39.2922851 ], [ -78.0812589, 39.2922866 ], [ -78.0812649, 39.2922768 ], [ -78.081319, 39.2922966 ], [ -78.0812724, 39.292373499999982 ], [ -78.081214, 39.2923521 ] ] ] } },
{ "type": "Feature", "properties": { "element": "way", "id": 1413095069, "building": "yes", "amenity": null, "brand": null, "brand:wikidata": null, "check_date": null, "hgv": null, "name": null, "addr:city": null, "addr:housenumber": null, "addr:postcode": null, "addr:state": null, "addr:street": null, "operator": null, "operator:type": null, "operator:wikidata": null, "fuel:diesel": null, "fuel:octane_87": null, "fuel:octane_89": null, "fuel:octane_93": null, "layer": null, "self_service": null, "shop": null, "addr:county": null, "source": null, "ele": null, "gnis:feature_id": null, "religion": null, "addr:unit": null }, "geometry": { "type": "Polygon", "coordinates": [ [ [ -78.081019600000019, 39.2924179 ], [ -78.0810487, 39.292361499999984 ], [ -78.0811193, 39.2923835 ], [ -78.0810902, 39.2924399 ], [ -78.081019600000019, 39.2924179 ] ] ] } },
{ "type": "Feature", "properties": { "element": "way", "id": 1413095081, "building": "yes", "amenity": null, "brand": null, "brand:wikidata": null, "check_date": null, "hgv": null, "name": null, "addr:city": null, "addr:housenumber": null, "addr:postcode": null, "addr:state": null, "addr:street": null, "operator": null, "operator:type": null, "operator:wikidata": null, "fuel:diesel": null, "fuel:octane_87": null, "fuel:octane_89": null, "fuel:octane_93": null, "layer": null, "self_service": null, "shop": null, "addr:county": null, "source": null, "ele": null, "gnis:feature_id": null, "religion": null, "addr:unit": null }, "geometry": { "type": "Polygon", "coordinates": [ [ [ -78.0809283, 39.292472599999989 ], [ -78.0809452, 39.2924426 ], [ -78.0810423, 39.29247560000001 ], [ -78.0810381, 39.292483 ], [ -78.0810434, 39.2924847 ], [ -78.0810347, 39.2925001 ], [ -78.0810281, 39.2924979 ], [ -78.081024, 39.2925051 ], [ -78.0809283, 39.292472599999989 ] ] ] } },
{ "type": "Feature", "properties": { "element": "way", "id": 1413095104, "building": "yes", "amenity": null, "brand": null, "brand:wikidata": null, "check_date": null, "hgv": null, "name": null, "addr:city": null, "addr:housenumber": null, "addr:postcode": null, "addr:state": null, "addr:street": null, "operator": null, "operator:type": null, "operator:wikidata": null, "fuel:diesel": null, "fuel:octane_87": null, "fuel:octane_89": null, "fuel:octane_93": null, "layer": null, "self_service": null, "shop": null, "addr:county": null, "source": null, "ele": null, "gnis:feature_id": null, "religion": null, "addr:unit": null }, "geometry": { "type": "Polygon", "coordinates": [ [ [ -78.0810665, 39.2926392 ], [ -78.0810724, 39.2926303 ], [ -78.0810296, 39.2926132 ], [ -78.0810361, 39.2926035 ], [ -78.0810698, 39.292617 ], [ -78.0810731, 39.292612 ], [ -78.0810621, 39.2926076 ], [ -78.0810784, 39.2925831 ], [ -78.0810974, 39.2925907 ], [ -78.0811128, 39.2925674 ], [ -78.0810806, 39.2925545 ], [ -78.0811146, 39.292503199999985 ], [ -78.0811478, 39.2925165 ], [ -78.0811516, 39.2925107 ], [ -78.0812667, 39.2925568 ], [ -78.0811815, 39.2926853 ], [ -78.0810665, 39.2926392 ] ] ] } },
{ "type": "Feature", "properties": { "element": "way", "id": 1413095173, "building": "yes", "amenity": null, "brand": null, "brand:wikidata": null, "check_date": null, "hgv": null, "name": null, "addr:city": null, "addr:housenumber": null, "addr:postcode": null, "addr:state": null, "addr:street": null, "operator": null, "operator:type": null, "operator:wikidata": null, "fuel:diesel": null, "fuel:octane_87": null, "fuel:octane_89": null, "fuel:octane_93": null, "layer": null, "self_service": null, "shop": null, "addr:county": null, "source": null, "ele": null, "gnis:feature_id": null, "religion": null, "addr:unit": null }, "geometry": { "type": "Polygon", "coordinates": [ [ [ -78.0807049, 39.2931705 ], [ -78.0807223, 39.2931483 ], [ -78.0806773, 39.293127 ], [ -78.0807197, 39.2930729 ], [ -78.0806814, 39.2930548 ], [ -78.0807035, 39.2930266 ], [ -78.0806863, 39.2930184 ], [ -78.0807228, 39.2929718 ], [ -78.0807911, 39.2930041 ], [ -78.080749, 39.293057899999987 ], [ -78.0807904, 39.293077399999987 ], [ -78.0807847, 39.293084600000014 ], [ -78.0808334, 39.2931076 ], [ -78.0808158, 39.2931302 ], [ -78.0808345, 39.2931391 ], [ -78.0807964, 39.293187800000013 ], [ -78.0807747, 39.2931776 ], [ -78.0807598, 39.2931965 ], [ -78.0807049, 39.2931705 ] ] ] } },
{ "type": "Feature", "properties": { "element": "way", "id": 1413095177, "building": "yes", "amenity": null, "brand": null, "brand:wikidata": null, "check_date": null, "hgv": null, "name": null, "addr:city": null, "addr:housenumber": null, "addr:postcode": null, "addr:state": null, "addr:street": null, "operator": null, "operator:type": null, "operator:wikidata": null, "fuel:diesel": null, "fuel:octane_87": null, "fuel:octane_89": null, "fuel:octane_93": null, "layer": null, "self_service": null, "shop": null, "addr:county": null, "source": null, "ele": null, "gnis:feature_id": null, "religion": null, "addr:unit": null }, "geometry": { "type": "Polygon", "coordinates": [ [ [ -78.0797841, 39.2931428 ], [ -78.0798079, 39.2931021 ], [ -78.0798015, 39.2930998 ], [ -78.0798173, 39.2930727 ], [ -78.0798724, 39.2930921 ], [ -78.0798556, 39.2931208 ], [ -78.0798451, 39.2931171 ], [ -78.0798222, 39.293156199999984 ], [ -78.0797841, 39.2931428 ] ] ] } },
{ "type": "Feature", "properties": { "element": "way", "id": 1413095182, "building": "yes", "amenity": null, "brand": null, "brand:wikidata": null, "check_date": null, "hgv": null, "name": null, "addr:city": null, "addr:housenumber": null, "addr:postcode": null, "addr:state": null, "addr:street": null, "operator": null, "operator:type": null, "operator:wikidata": null, "fuel:diesel": null, "fuel:octane_87": null, "fuel:octane_89": null, "fuel:octane_93": null, "layer": null, "self_service": null, "shop": null, "addr:county": null, "source": null, "ele": null, "gnis:feature_id": null, "religion": null, "addr:unit": null }, "geometry": { "type": "Polygon", "coordinates": [ [ [ -78.080319, 39.2931428 ], [ -78.0803553, 39.293103 ], [ -78.0804004, 39.2931272 ], [ -78.0804202, 39.293105 ], [ -78.0805084, 39.293152399999983 ], [ -78.0804737, 39.2931914 ], [ -78.0804409, 39.29317480000001 ], [ -78.0804215, 39.293198199999985 ], [ -78.080319, 39.2931428 ] ] ] } },
{ "type": "Feature", "properties": { "element": "way", "id": 1413095191, "building": "yes", "amenity": null, "brand": null, "brand:wikidata": null, "check_date": null, "hgv": null, "name": null, "addr:city": null, "addr:housenumber": null, "addr:postcode": null, "addr:state": null, "addr:street": null, "operator": null, "operator:type": null, "operator:wikidata": null, "fuel:diesel": null, "fuel:octane_87": null, "fuel:octane_89": null, "fuel:octane_93": null, "layer": null, "self_service": null, "shop": null, "addr:county": null, "source": null, "ele": null, "gnis:feature_id": null, "religion": null, "addr:unit": null }, "geometry": { "type": "Polygon", "coordinates": [ [ [ -78.0797842, 39.2932079 ], [ -78.0798078, 39.293182 ], [ -78.0798607, 39.2932113 ], [ -78.0798371, 39.2932371 ], [ -78.0797842, 39.2932079 ] ] ] } },
{ "type": "Feature", "properties": { "element": "way", "id": 1413095198, "building": "yes", "amenity": null, "brand": null, "brand:wikidata": null, "check_date": null, "hgv": null, "name": null, "addr:city": null, "addr:housenumber": null, "addr:postcode": null, "addr:state": null, "addr:street": null, "operator": null, "operator:type": null, "operator:wikidata": null, "fuel:diesel": null, "fuel:octane_87": null, "fuel:octane_89": null, "fuel:octane_93": null, "layer": null, "self_service": null, "shop": null, "addr:county": null, "source": null, "ele": null, "gnis:feature_id": null, "religion": null, "addr:unit": null }, "geometry": { "type": "Polygon", "coordinates": [ [ [ -78.0805051, 39.2932901 ], [ -78.0804953, 39.2933017 ], [ -78.0804564, 39.2932819 ], [ -78.0804785, 39.2932556 ], [ -78.0805018, 39.293253 ], [ -78.0805221, 39.2932633 ], [ -78.080552, 39.2932278 ], [ -78.0805756, 39.2932398 ], [ -78.0805822, 39.293231899999988 ], [ -78.0807081, 39.293296 ], [ -78.0806878, 39.293320199999989 ], [ -78.0807121, 39.2933326 ], [ -78.0806974, 39.2933501 ], [ -78.0806736, 39.293338 ], [ -78.0806513, 39.2933645 ], [ -78.0805051, 39.2932901 ] ] ] } },
{ "type": "Feature", "properties": { "element": "way", "id": 1413095228, "building": "yes", "amenity": null, "brand": null, "brand:wikidata": null, "check_date": null, "hgv": null, "name": null, "addr:city": null, "addr:housenumber": null, "addr:postcode": null, "addr:state": null, "addr:street": null, "operator": null, "operator:type": null, "operator:wikidata": null, "fuel:diesel": null, "fuel:octane_87": null, "fuel:octane_89": null, "fuel:octane_93": null, "layer": null, "self_service": null, "shop": null, "addr:county": null, "source": null, "ele": null, "gnis:feature_id": null, "religion": null, "addr:unit": null }, "geometry": { "type": "Polygon", "coordinates": [ [ [ -78.0804563, 39.2935321 ], [ -78.080451, 39.2935377 ], [ -78.0803604, 39.2934863 ], [ -78.080369, 39.2934771 ], [ -78.080327200000013, 39.2934534 ], [ -78.0803222, 39.2934587 ], [ -78.0803088, 39.2934511 ], [ -78.0803373, 39.2934179 ], [ -78.0803743, 39.2934388 ], [ -78.0803956, 39.2934161 ], [ -78.0805103, 39.2934812 ], [ -78.0805049, 39.2934869 ], [ -78.0805214, 39.2934963 ], [ -78.08047670000002, 39.2935438 ], [ -78.0804563, 39.2935321 ] ] ] } },
{ "type": "Feature", "properties": { "element": "way", "id": 1413095229, "building": "yes", "amenity": null, "brand": null, "brand:wikidata": null, "check_date": null, "hgv": null, "name": null, "addr:city": null, "addr:housenumber": null, "addr:postcode": null, "addr:state": null, "addr:street": null, "operator": null, "operator:type": null, "operator:wikidata": null, "fuel:diesel": null, "fuel:octane_87": null, "fuel:octane_89": null, "fuel:octane_93": null, "layer": null, "self_service": null, "shop": null, "addr:county": null, "source": null, "ele": null, "gnis:feature_id": null, "religion": null, "addr:unit": null }, "geometry": { "type": "Polygon", "coordinates": [ [ [ -78.0800601, 39.2934878 ], [ -78.0800627, 39.2934851 ], [ -78.0800031, 39.2934508 ], [ -78.0800474, 39.2934042 ], [ -78.0801049, 39.2934373 ], [ -78.0801167, 39.2934249 ], [ -78.0802348, 39.29349280000001 ], [ -78.0801762, 39.2935544 ], [ -78.0800601, 39.2934878 ] ] ] } },
{ "type": "Feature", "properties": { "element": "way", "id": 1413095237, "building": "yes", "amenity": null, "brand": null, "brand:wikidata": null, "check_date": null, "hgv": null, "name": null, "addr:city": null, "addr:housenumber": null, "addr:postcode": null, "addr:state": null, "addr:street": null, "operator": null, "operator:type": null, "operator:wikidata": null, "fuel:diesel": null, "fuel:octane_87": null, "fuel:octane_89": null, "fuel:octane_93": null, "layer": null, "self_service": null, "shop": null, "addr:county": null, "source": null, "ele": null, "gnis:feature_id": null, "religion": null, "addr:unit": null }, "geometry": { "type": "Polygon", "coordinates": [ [ [ -78.0813639, 39.293535699999985 ], [ -78.0814837, 39.2933987 ], [ -78.0817761, 39.2935531 ], [ -78.0816563, 39.293690099999985 ], [ -78.0813639, 39.293535699999985 ] ] ] } },
{ "type": "Feature", "properties": { "element": "way", "id": 1413095257, "building": "yes", "amenity": null, "brand": null, "brand:wikidata": null, "check_date": null, "hgv": null, "name": null, "addr:city": null, "addr:housenumber": null, "addr:postcode": null, "addr:state": null, "addr:street": null, "operator": null, "operator:type": null, "operator:wikidata": null, "fuel:diesel": null, "fuel:octane_87": null, "fuel:octane_89": null, "fuel:octane_93": null, "layer": null, "self_service": null, "shop": null, "addr:county": null, "source": null, "ele": null, "gnis:feature_id": null, "religion": null, "addr:unit": null }, "geometry": { "type": "Polygon", "coordinates": [ [ [ -78.079910100000021, 39.293718099999985 ], [ -78.0799643, 39.2936606 ], [ -78.0801052, 39.2937409 ], [ -78.080051, 39.2937984 ], [ -78.079910100000021, 39.293718099999985 ] ] ] } },
{ "type": "Feature", "properties": { "element": "way", "id": 1413095273, "building": "yes", "amenity": null, "brand": null, "brand:wikidata": null, "check_date": null, "hgv": null, "name": null, "addr:city": null, "addr:housenumber": null, "addr:postcode": null, "addr:state": null, "addr:street": null, "operator": null, "operator:type": null, "operator:wikidata": null, "fuel:diesel": null, "fuel:octane_87": null, "fuel:octane_89": null, "fuel:octane_93": null, "layer": null, "self_service": null, "shop": null, "addr:county": null, "source": null, "ele": null, "gnis:feature_id": null, "religion": null, "addr:unit": null }, "geometry": { "type": "Polygon", "coordinates": [ [ [ -78.0794711, 39.293821800000011 ], [ -78.0795196, 39.2937706 ], [ -78.0795874, 39.2938093 ], [ -78.0795389, 39.2938606 ], [ -78.0794711, 39.293821800000011 ] ] ] } },
{ "type": "Feature", "properties": { "element": "way", "id": 1413095276, "building": "yes", "amenity": null, "brand": null, "brand:wikidata": null, "check_date": null, "hgv": null, "name": null, "addr:city": null, "addr:housenumber": null, "addr:postcode": null, "addr:state": null, "addr:street": null, "operator": null, "operator:type": null, "operator:wikidata": null, "fuel:diesel": null, "fuel:octane_87": null, "fuel:octane_89": null, "fuel:octane_93": null, "layer": null, "self_service": null, "shop": null, "addr:county": null, "source": null, "ele": null, "gnis:feature_id": null, "religion": null, "addr:unit": null }, "geometry": { "type": "Polygon", "coordinates": [ [ [ -78.0797064, 39.293836400000011 ], [ -78.0797357, 39.2938053 ], [ -78.0797793, 39.2938324 ], [ -78.079831, 39.2937776 ], [ -78.0798702, 39.2938 ], [ -78.0798152, 39.2938583 ], [ -78.079797, 39.29384790000001 ], [ -78.0797723, 39.293874 ], [ -78.0797064, 39.293836400000011 ] ] ] } },
{ "type": "Feature", "properties": { "element": "way", "id": 1413095283, "building": "yes", "amenity": null, "brand": null, "brand:wikidata": null, "check_date": null, "hgv": null, "name": null, "addr:city": null, "addr:housenumber": null, "addr:postcode": null, "addr:state": null, "addr:street": null, "operator": null, "operator:type": null, "operator:wikidata": null, "fuel:diesel": null, "fuel:octane_87": null, "fuel:octane_89": null, "fuel:octane_93": null, "layer": null, "self_service": null, "shop": null, "addr:county": null, "source": null, "ele": null, "gnis:feature_id": null, "religion": null, "addr:unit": null }, "geometry": { "type": "Polygon", "coordinates": [ [ [ -78.0799429, 39.2938753 ], [ -78.0799723, 39.293846599999988 ], [ -78.0800046, 39.2938666 ], [ -78.079975200000021, 39.293895199999987 ], [ -78.0799429, 39.2938753 ] ] ] } },
{ "type": "Feature", "properties": { "element": "way", "id": 1413095289, "building": "yes", "amenity": null, "brand": null, "brand:wikidata": null, "check_date": null, "hgv": null, "name": null, "addr:city": null, "addr:housenumber": null, "addr:postcode": null, "addr:state": null, "addr:street": null, "operator": null, "operator:type": null, "operator:wikidata": null, "fuel:diesel": null, "fuel:octane_87": null, "fuel:octane_89": null, "fuel:octane_93": null, "layer": null, "self_service": null, "shop": null, "addr:county": null, "source": null, "ele": null, "gnis:feature_id": null, "religion": null, "addr:unit": null }, "geometry": { "type": "Polygon", "coordinates": [ [ [ -78.0792118, 39.2938841 ], [ -78.0792194, 39.293875299999989 ], [ -78.0792011, 39.2938658 ], [ -78.0792184, 39.2938457 ], [ -78.0792368, 39.2938552 ], [ -78.0792453, 39.2938453 ], [ -78.0793343, 39.2938914 ], [ -78.079301, 39.2939303 ], [ -78.0792118, 39.2938841 ] ] ] } },
{ "type": "Feature", "properties": { "element": "way", "id": 1413095300, "building": "yes", "amenity": null, "brand": null, "brand:wikidata": null, "check_date": null, "hgv": null, "name": null, "addr:city": null, "addr:housenumber": null, "addr:postcode": null, "addr:state": null, "addr:street": null, "operator": null, "operator:type": null, "operator:wikidata": null, "fuel:diesel": null, "fuel:octane_87": null, "fuel:octane_89": null, "fuel:octane_93": null, "layer": null, "self_service": null, "shop": null, "addr:county": null, "source": null, "ele": null, "gnis:feature_id": null, "religion": null, "addr:unit": null }, "geometry": { "type": "Polygon", "coordinates": [ [ [ -78.0800281, 39.2940206 ], [ -78.0800217, 39.2940272 ], [ -78.0799178, 39.293966 ], [ -78.0799911, 39.2938909 ], [ -78.0799968, 39.2938942 ], [ -78.0800004, 39.2938905 ], [ -78.0800352, 39.2939109 ], [ -78.0800441, 39.2939018 ], [ -78.080065200000021, 39.2939142 ], [ -78.0800368, 39.2939433 ], [ -78.0800794, 39.2939684 ], [ -78.0800744, 39.2939735 ], [ -78.0800948, 39.2939868 ], [ -78.0800506, 39.2940342 ], [ -78.0800281, 39.2940206 ] ] ] } },
{ "type": "Feature", "properties": { "element": "way", "id": 1413095305, "building": "yes", "amenity": null, "brand": null, "brand:wikidata": null, "check_date": null, "hgv": null, "name": null, "addr:city": null, "addr:housenumber": null, "addr:postcode": null, "addr:state": null, "addr:street": null, "operator": null, "operator:type": null, "operator:wikidata": null, "fuel:diesel": null, "fuel:octane_87": null, "fuel:octane_89": null, "fuel:octane_93": null, "layer": null, "self_service": null, "shop": null, "addr:county": null, "source": null, "ele": null, "gnis:feature_id": null, "religion": null, "addr:unit": null }, "geometry": { "type": "Polygon", "coordinates": [ [ [ -78.0793427, 39.293979899999982 ], [ -78.07940090000001, 39.2939188 ], [ -78.0795189, 39.2939866 ], [ -78.0794606, 39.2940477 ], [ -78.0793427, 39.293979899999982 ] ] ] } },
{ "type": "Feature", "properties": { "element": "way", "id": 1413096093, "building": "yes", "amenity": null, "brand": null, "brand:wikidata": null, "check_date": null, "hgv": null, "name": null, "addr:city": null, "addr:housenumber": null, "addr:postcode": null, "addr:state": null, "addr:street": null, "operator": null, "operator:type": null, "operator:wikidata": null, "fuel:diesel": null, "fuel:octane_87": null, "fuel:octane_89": null, "fuel:octane_93": null, "layer": null, "self_service": null, "shop": null, "addr:county": null, "source": null, "ele": null, "gnis:feature_id": null, "religion": null, "addr:unit": null }, "geometry": { "type": "Polygon", "coordinates": [ [ [ -78.0810333, 39.2854198 ], [ -78.0810463, 39.2853722 ], [ -78.0810902, 39.2853794 ], [ -78.0810772, 39.285427 ], [ -78.0810333, 39.2854198 ] ] ] } },
{ "type": "Feature", "properties": { "element": "way", "id": 1413096097, "building": "yes", "amenity": null, "brand": null, "brand:wikidata": null, "check_date": null, "hgv": null, "name": null, "addr:city": null, "addr:housenumber": null, "addr:postcode": null, "addr:state": null, "addr:street": null, "operator": null, "operator:type": null, "operator:wikidata": null, "fuel:diesel": null, "fuel:octane_87": null, "fuel:octane_89": null, "fuel:octane_93": null, "layer": null, "self_service": null, "shop": null, "addr:county": null, "source": null, "ele": null, "gnis:feature_id": null, "religion": null, "addr:unit": null }, "geometry": { "type": "Polygon", "coordinates": [ [ [ -78.081616, 39.285472099999986 ], [ -78.0816316, 39.285417299999985 ], [ -78.0816386, 39.2854185 ], [ -78.0816431, 39.2854026 ], [ -78.0816993, 39.2854122 ], [ -78.0816946, 39.2854289 ], [ -78.0817218, 39.2854335 ], [ -78.0817065, 39.28548760000001 ], [ -78.081616, 39.285472099999986 ] ] ] } },
{ "type": "Feature", "properties": { "element": "way", "id": 1413096114, "building": "yes", "amenity": null, "brand": null, "brand:wikidata": null, "check_date": null, "hgv": null, "name": null, "addr:city": null, "addr:housenumber": null, "addr:postcode": null, "addr:state": null, "addr:street": null, "operator": null, "operator:type": null, "operator:wikidata": null, "fuel:diesel": null, "fuel:octane_87": null, "fuel:octane_89": null, "fuel:octane_93": null, "layer": null, "self_service": null, "shop": null, "addr:county": null, "source": null, "ele": null, "gnis:feature_id": null, "religion": null, "addr:unit": null }, "geometry": { "type": "Polygon", "coordinates": [ [ [ -78.0801462, 39.2856022 ], [ -78.0801708, 39.2855178 ], [ -78.0802614, 39.2855337 ], [ -78.0802368, 39.2856181 ], [ -78.0801462, 39.2856022 ] ] ] } },
{ "type": "Feature", "properties": { "element": "way", "id": 1413096202, "building": "yes", "amenity": null, "brand": null, "brand:wikidata": null, "check_date": null, "hgv": null, "name": null, "addr:city": null, "addr:housenumber": null, "addr:postcode": null, "addr:state": null, "addr:street": null, "operator": null, "operator:type": null, "operator:wikidata": null, "fuel:diesel": null, "fuel:octane_87": null, "fuel:octane_89": null, "fuel:octane_93": null, "layer": null, "self_service": null, "shop": null, "addr:county": null, "source": null, "ele": null, "gnis:feature_id": null, "religion": null, "addr:unit": null }, "geometry": { "type": "Polygon", "coordinates": [ [ [ -78.0837134, 39.2861896 ], [ -78.083730100000011, 39.2861354 ], [ -78.0837906, 39.286146699999989 ], [ -78.083773900000011, 39.28620080000001 ], [ -78.0837134, 39.2861896 ] ] ] } },
{ "type": "Feature", "properties": { "element": "way", "id": 1413096205, "building": "yes", "amenity": null, "brand": null, "brand:wikidata": null, "check_date": null, "hgv": null, "name": null, "addr:city": null, "addr:housenumber": null, "addr:postcode": null, "addr:state": null, "addr:street": null, "operator": null, "operator:type": null, "operator:wikidata": null, "fuel:diesel": null, "fuel:octane_87": null, "fuel:octane_89": null, "fuel:octane_93": null, "layer": null, "self_service": null, "shop": null, "addr:county": null, "source": null, "ele": null, "gnis:feature_id": null, "religion": null, "addr:unit": null }, "geometry": { "type": "Polygon", "coordinates": [ [ [ -78.0752415, 39.2860964 ], [ -78.0752612, 39.2860562 ], [ -78.0752979, 39.286067 ], [ -78.0752782, 39.2861073 ], [ -78.0752415, 39.2860964 ] ] ] } },
{ "type": "Feature", "properties": { "element": "way", "id": 1413096244, "building": "yes", "amenity": null, "brand": null, "brand:wikidata": null, "check_date": null, "hgv": null, "name": null, "addr:city": null, "addr:housenumber": null, "addr:postcode": null, "addr:state": null, "addr:street": null, "operator": null, "operator:type": null, "operator:wikidata": null, "fuel:diesel": null, "fuel:octane_87": null, "fuel:octane_89": null, "fuel:octane_93": null, "layer": null, "self_service": null, "shop": null, "addr:county": null, "source": null, "ele": null, "gnis:feature_id": null, "religion": null, "addr:unit": null }, "geometry": { "type": "Polygon", "coordinates": [ [ [ -78.084704, 39.2865501 ], [ -78.084725, 39.2864882 ], [ -78.084633100000019, 39.2864693 ], [ -78.0846503, 39.2864186 ], [ -78.0848333, 39.2864599 ], [ -78.0847963, 39.286569 ], [ -78.084704, 39.2865501 ] ] ] } },
{ "type": "Feature", "properties": { "element": "way", "id": 1413096251, "building": "yes", "amenity": null, "brand": null, "brand:wikidata": null, "check_date": null, "hgv": null, "name": null, "addr:city": null, "addr:housenumber": null, "addr:postcode": null, "addr:state": null, "addr:street": null, "operator": null, "operator:type": null, "operator:wikidata": null, "fuel:diesel": null, "fuel:octane_87": null, "fuel:octane_89": null, "fuel:octane_93": null, "layer": null, "self_service": null, "shop": null, "addr:county": null, "source": null, "ele": null, "gnis:feature_id": null, "religion": null, "addr:unit": null }, "geometry": { "type": "Polygon", "coordinates": [ [ [ -78.0725287, 39.2864109 ], [ -78.0725712, 39.2863246 ], [ -78.0726216, 39.2863396 ], [ -78.0726363, 39.2863098 ], [ -78.07275, 39.2863436 ], [ -78.0727335, 39.2863772 ], [ -78.072747, 39.2863812 ], [ -78.0727065, 39.2864637 ], [ -78.0725287, 39.2864109 ] ] ] } },
{ "type": "Feature", "properties": { "element": "way", "id": 1413096284, "building": "yes", "amenity": null, "brand": null, "brand:wikidata": null, "check_date": null, "hgv": null, "name": null, "addr:city": null, "addr:housenumber": null, "addr:postcode": null, "addr:state": null, "addr:street": null, "operator": null, "operator:type": null, "operator:wikidata": null, "fuel:diesel": null, "fuel:octane_87": null, "fuel:octane_89": null, "fuel:octane_93": null, "layer": null, "self_service": null, "shop": null, "addr:county": null, "source": null, "ele": null, "gnis:feature_id": null, "religion": null, "addr:unit": null }, "geometry": { "type": "Polygon", "coordinates": [ [ [ -78.0774939, 39.2867017 ], [ -78.0774673, 39.2866922 ], [ -78.0774547, 39.2866804 ], [ -78.0774472, 39.2866585 ], [ -78.0774505, 39.286635699999984 ], [ -78.0774604, 39.2866224 ], [ -78.0774844, 39.28660940000001 ], [ -78.0775337, 39.2866094 ], [ -78.0775577, 39.2866224 ], [ -78.0775675, 39.286635699999984 ], [ -78.0775675, 39.2866735 ], [ -78.0775427, 39.2866965 ], [ -78.0775242, 39.2867017 ], [ -78.0774939, 39.2867017 ] ] ] } },
{ "type": "Feature", "properties": { "element": "way", "id": 1413096288, "building": "yes", "amenity": null, "brand": null, "brand:wikidata": null, "check_date": null, "hgv": null, "name": null, "addr:city": null, "addr:housenumber": null, "addr:postcode": null, "addr:state": null, "addr:street": null, "operator": null, "operator:type": null, "operator:wikidata": null, "fuel:diesel": null, "fuel:octane_87": null, "fuel:octane_89": null, "fuel:octane_93": null, "layer": null, "self_service": null, "shop": null, "addr:county": null, "source": null, "ele": null, "gnis:feature_id": null, "religion": null, "addr:unit": null }, "geometry": { "type": "Polygon", "coordinates": [ [ [ -78.0846335, 39.286804 ], [ -78.0846695, 39.2867178 ], [ -78.0847111, 39.2867283 ], [ -78.0847196, 39.286708 ], [ -78.0847605, 39.2867183 ], [ -78.0847161, 39.2868248 ], [ -78.0846335, 39.286804 ] ] ] } },
{ "type": "Feature", "properties": { "element": "way", "id": 1413096290, "building": "yes", "amenity": null, "brand": null, "brand:wikidata": null, "check_date": null, "hgv": null, "name": null, "addr:city": null, "addr:housenumber": null, "addr:postcode": null, "addr:state": null, "addr:street": null, "operator": null, "operator:type": null, "operator:wikidata": null, "fuel:diesel": null, "fuel:octane_87": null, "fuel:octane_89": null, "fuel:octane_93": null, "layer": null, "self_service": null, "shop": null, "addr:county": null, "source": null, "ele": null, "gnis:feature_id": null, "religion": null, "addr:unit": null }, "geometry": { "type": "Polygon", "coordinates": [ [ [ -78.0721115, 39.2866898 ], [ -78.0721098, 39.286695399999985 ], [ -78.072017, 39.2866767 ], [ -78.072030900000016, 39.2866373 ], [ -78.0720137, 39.2866339 ], [ -78.0720275, 39.2865916 ], [ -78.0720447, 39.286595 ], [ -78.0720625, 39.2865405 ], [ -78.0721561, 39.2865589 ], [ -78.0721444, 39.2865948 ], [ -78.0721971, 39.2866052 ], [ -78.0721736, 39.2866775 ], [ -78.0721682, 39.2866764 ], [ -78.0721607, 39.28669940000001 ], [ -78.0721115, 39.2866898 ] ] ] } },
{ "type": "Feature", "properties": { "element": "way", "id": 1413096291, "building": "yes", "amenity": null, "brand": null, "brand:wikidata": null, "check_date": null, "hgv": null, "name": null, "addr:city": null, "addr:housenumber": null, "addr:postcode": null, "addr:state": null, "addr:street": null, "operator": null, "operator:type": null, "operator:wikidata": null, "fuel:diesel": null, "fuel:octane_87": null, "fuel:octane_89": null, "fuel:octane_93": null, "layer": null, "self_service": null, "shop": null, "addr:county": null, "source": null, "ele": null, "gnis:feature_id": null, "religion": null, "addr:unit": null }, "geometry": { "type": "Polygon", "coordinates": [ [ [ -78.0775713, 39.2867085 ], [ -78.0776012, 39.2866503 ], [ -78.0776997, 39.2866808 ], [ -78.0776698, 39.286739 ], [ -78.0775713, 39.2867085 ] ] ] } },
{ "type": "Feature", "properties": { "element": "way", "id": 1413096293, "building": "yes", "amenity": null, "brand": null, "brand:wikidata": null, "check_date": null, "hgv": null, "name": null, "addr:city": null, "addr:housenumber": null, "addr:postcode": null, "addr:state": null, "addr:street": null, "operator": null, "operator:type": null, "operator:wikidata": null, "fuel:diesel": null, "fuel:octane_87": null, "fuel:octane_89": null, "fuel:octane_93": null, "layer": null, "self_service": null, "shop": null, "addr:county": null, "source": null, "ele": null, "gnis:feature_id": null, "religion": null, "addr:unit": null }, "geometry": { "type": "Polygon", "coordinates": [ [ [ -78.0850747, 39.2868109 ], [ -78.085092, 39.2867577 ], [ -78.085155900000018, 39.2867703 ], [ -78.0851411, 39.2868156 ], [ -78.0851208, 39.2868116 ], [ -78.0851182, 39.2868195 ], [ -78.0850747, 39.2868109 ] ] ] } },
{ "type": "Feature", "properties": { "element": "way", "id": 1413096297, "building": "yes", "amenity": null, "brand": null, "brand:wikidata": null, "check_date": null, "hgv": null, "name": null, "addr:city": null, "addr:housenumber": null, "addr:postcode": null, "addr:state": null, "addr:street": null, "operator": null, "operator:type": null, "operator:wikidata": null, "fuel:diesel": null, "fuel:octane_87": null, "fuel:octane_89": null, "fuel:octane_93": null, "layer": null, "self_service": null, "shop": null, "addr:county": null, "source": null, "ele": null, "gnis:feature_id": null, "religion": null, "addr:unit": null }, "geometry": { "type": "Polygon", "coordinates": [ [ [ -78.0723328, 39.286681699999988 ], [ -78.0723577, 39.2866169 ], [ -78.0724477, 39.2866378 ], [ -78.0724227, 39.2867026 ], [ -78.0723328, 39.286681699999988 ] ] ] } },
{ "type": "Feature", "properties": { "element": "way", "id": 1413096300, "building": "yes", "amenity": null, "brand": null, "brand:wikidata": null, "check_date": null, "hgv": null, "name": null, "addr:city": null, "addr:housenumber": null, "addr:postcode": null, "addr:state": null, "addr:street": null, "operator": null, "operator:type": null, "operator:wikidata": null, "fuel:diesel": null, "fuel:octane_87": null, "fuel:octane_89": null, "fuel:octane_93": null, "layer": null, "self_service": null, "shop": null, "addr:county": null, "source": null, "ele": null, "gnis:feature_id": null, "religion": null, "addr:unit": null }, "geometry": { "type": "Polygon", "coordinates": [ [ [ -78.0724812, 39.286698199999989 ], [ -78.0725064, 39.2866382 ], [ -78.0726692, 39.2866795 ], [ -78.072644, 39.2867395 ], [ -78.0724812, 39.286698199999989 ] ] ] } },
{ "type": "Feature", "properties": { "element": "way", "id": 1413096312, "building": "yes", "amenity": null, "brand": null, "brand:wikidata": null, "check_date": null, "hgv": null, "name": null, "addr:city": null, "addr:housenumber": null, "addr:postcode": null, "addr:state": null, "addr:street": null, "operator": null, "operator:type": null, "operator:wikidata": null, "fuel:diesel": null, "fuel:octane_87": null, "fuel:octane_89": null, "fuel:octane_93": null, "layer": null, "self_service": null, "shop": null, "addr:county": null, "source": null, "ele": null, "gnis:feature_id": null, "religion": null, "addr:unit": null }, "geometry": { "type": "Polygon", "coordinates": [ [ [ -78.0844633, 39.2869189 ], [ -78.0844703, 39.2869 ], [ -78.0844467, 39.2868947 ], [ -78.084463900000017, 39.2868482 ], [ -78.0844924, 39.2868546 ], [ -78.0845076, 39.286813699999989 ], [ -78.0845834, 39.2868306 ], [ -78.084571600000018, 39.2868626 ], [ -78.0845983, 39.2868685 ], [ -78.0845707, 39.2869429 ], [ -78.0844633, 39.2869189 ] ] ] } },
{ "type": "Feature", "properties": { "element": "way", "id": 1413096324, "building": "yes", "amenity": null, "brand": null, "brand:wikidata": null, "check_date": null, "hgv": null, "name": null, "addr:city": null, "addr:housenumber": null, "addr:postcode": null, "addr:state": null, "addr:street": null, "operator": null, "operator:type": null, "operator:wikidata": null, "fuel:diesel": null, "fuel:octane_87": null, "fuel:octane_89": null, "fuel:octane_93": null, "layer": null, "self_service": null, "shop": null, "addr:county": null, "source": null, "ele": null, "gnis:feature_id": null, "religion": null, "addr:unit": null }, "geometry": { "type": "Polygon", "coordinates": [ [ [ -78.0850517, 39.2869664 ], [ -78.0850667, 39.2869284 ], [ -78.0851085, 39.2869383 ], [ -78.0850935, 39.2869764 ], [ -78.0850517, 39.2869664 ] ] ] } },
{ "type": "Feature", "properties": { "element": "way", "id": 1413096332, "building": "yes", "amenity": null, "brand": null, "brand:wikidata": null, "check_date": null, "hgv": null, "name": null, "addr:city": null, "addr:housenumber": null, "addr:postcode": null, "addr:state": null, "addr:street": null, "operator": null, "operator:type": null, "operator:wikidata": null, "fuel:diesel": null, "fuel:octane_87": null, "fuel:octane_89": null, "fuel:octane_93": null, "layer": null, "self_service": null, "shop": null, "addr:county": null, "source": null, "ele": null, "gnis:feature_id": null, "religion": null, "addr:unit": null }, "geometry": { "type": "Polygon", "coordinates": [ [ [ -78.0832451, 39.2870616 ], [ -78.0832811, 39.286959 ], [ -78.0833918, 39.2869814 ], [ -78.0833552, 39.2870849 ], [ -78.0832451, 39.2870616 ] ] ] } },
{ "type": "Feature", "properties": { "element": "way", "id": 1413096347, "building": "yes", "amenity": null, "brand": null, "brand:wikidata": null, "check_date": null, "hgv": null, "name": null, "addr:city": null, "addr:housenumber": null, "addr:postcode": null, "addr:state": null, "addr:street": null, "operator": null, "operator:type": null, "operator:wikidata": null, "fuel:diesel": null, "fuel:octane_87": null, "fuel:octane_89": null, "fuel:octane_93": null, "layer": null, "self_service": null, "shop": null, "addr:county": null, "source": null, "ele": null, "gnis:feature_id": null, "religion": null, "addr:unit": null }, "geometry": { "type": "Polygon", "coordinates": [ [ [ -78.0835144, 39.2871592 ], [ -78.0835333, 39.287102900000015 ], [ -78.0835993, 39.2871164 ], [ -78.0835803, 39.2871726 ], [ -78.0835144, 39.2871592 ] ] ] } },
{ "type": "Feature", "properties": { "element": "way", "id": 1413096356, "building": "yes", "amenity": null, "brand": null, "brand:wikidata": null, "check_date": null, "hgv": null, "name": null, "addr:city": null, "addr:housenumber": null, "addr:postcode": null, "addr:state": null, "addr:street": null, "operator": null, "operator:type": null, "operator:wikidata": null, "fuel:diesel": null, "fuel:octane_87": null, "fuel:octane_89": null, "fuel:octane_93": null, "layer": null, "self_service": null, "shop": null, "addr:county": null, "source": null, "ele": null, "gnis:feature_id": null, "religion": null, "addr:unit": null }, "geometry": { "type": "Polygon", "coordinates": [ [ [ -78.083274, 39.2871941 ], [ -78.083285, 39.2871659 ], [ -78.0833531, 39.2871819 ], [ -78.0833421, 39.2872101 ], [ -78.083274, 39.2871941 ] ] ] } },
{ "type": "Feature", "properties": { "element": "way", "id": 1413096360, "building": "yes", "amenity": null, "brand": null, "brand:wikidata": null, "check_date": null, "hgv": null, "name": null, "addr:city": null, "addr:housenumber": null, "addr:postcode": null, "addr:state": null, "addr:street": null, "operator": null, "operator:type": null, "operator:wikidata": null, "fuel:diesel": null, "fuel:octane_87": null, "fuel:octane_89": null, "fuel:octane_93": null, "layer": null, "self_service": null, "shop": null, "addr:county": null, "source": null, "ele": null, "gnis:feature_id": null, "religion": null, "addr:unit": null }, "geometry": { "type": "Polygon", "coordinates": [ [ [ -78.0833484, 39.2872171 ], [ -78.08336, 39.2871829 ], [ -78.0834522, 39.2872019 ], [ -78.0834406, 39.2872361 ], [ -78.0833484, 39.2872171 ] ] ] } },
{ "type": "Feature", "properties": { "element": "way", "id": 1413096449, "building": "yes", "amenity": null, "brand": null, "brand:wikidata": null, "check_date": null, "hgv": null, "name": null, "addr:city": null, "addr:housenumber": null, "addr:postcode": null, "addr:state": null, "addr:street": null, "operator": null, "operator:type": null, "operator:wikidata": null, "fuel:diesel": null, "fuel:octane_87": null, "fuel:octane_89": null, "fuel:octane_93": null, "layer": null, "self_service": null, "shop": null, "addr:county": null, "source": null, "ele": null, "gnis:feature_id": null, "religion": null, "addr:unit": null }, "geometry": { "type": "Polygon", "coordinates": [ [ [ -78.0832964, 39.2878298 ], [ -78.0833125, 39.2877843 ], [ -78.0832945, 39.2877804 ], [ -78.0833118, 39.2877314 ], [ -78.0833753, 39.287745 ], [ -78.0833646, 39.287775200000013 ], [ -78.0833763, 39.2877777 ], [ -78.0833691, 39.2877981 ], [ -78.0833601, 39.2877962 ], [ -78.0833445, 39.2878401 ], [ -78.0832964, 39.2878298 ] ] ] } },
{ "type": "Feature", "properties": { "element": "way", "id": 1413096482, "building": "yes", "amenity": null, "brand": null, "brand:wikidata": null, "check_date": null, "hgv": null, "name": null, "addr:city": null, "addr:housenumber": null, "addr:postcode": null, "addr:state": null, "addr:street": null, "operator": null, "operator:type": null, "operator:wikidata": null, "fuel:diesel": null, "fuel:octane_87": null, "fuel:octane_89": null, "fuel:octane_93": null, "layer": null, "self_service": null, "shop": null, "addr:county": null, "source": null, "ele": null, "gnis:feature_id": null, "religion": null, "addr:unit": null }, "geometry": { "type": "Polygon", "coordinates": [ [ [ -78.0769304, 39.2878719 ], [ -78.0769592, 39.2878225 ], [ -78.0770572, 39.2878571 ], [ -78.0770284, 39.2879064 ], [ -78.0769304, 39.2878719 ] ] ] } },
{ "type": "Feature", "properties": { "element": "way", "id": 1413096503, "building": "yes", "amenity": null, "brand": null, "brand:wikidata": null, "check_date": null, "hgv": null, "name": null, "addr:city": null, "addr:housenumber": null, "addr:postcode": null, "addr:state": null, "addr:street": null, "operator": null, "operator:type": null, "operator:wikidata": null, "fuel:diesel": null, "fuel:octane_87": null, "fuel:octane_89": null, "fuel:octane_93": null, "layer": null, "self_service": null, "shop": null, "addr:county": null, "source": null, "ele": null, "gnis:feature_id": null, "religion": null, "addr:unit": null }, "geometry": { "type": "Polygon", "coordinates": [ [ [ -78.0828464, 39.2880685 ], [ -78.082862100000014, 39.2880276 ], [ -78.082947, 39.2880473 ], [ -78.0829313, 39.2880882 ], [ -78.0828464, 39.2880685 ] ] ] } },
{ "type": "Feature", "properties": { "element": "way", "id": 1413096551, "building": "yes", "amenity": null, "brand": null, "brand:wikidata": null, "check_date": null, "hgv": null, "name": null, "addr:city": null, "addr:housenumber": null, "addr:postcode": null, "addr:state": null, "addr:street": null, "operator": null, "operator:type": null, "operator:wikidata": null, "fuel:diesel": null, "fuel:octane_87": null, "fuel:octane_89": null, "fuel:octane_93": null, "layer": null, "self_service": null, "shop": null, "addr:county": null, "source": null, "ele": null, "gnis:feature_id": null, "religion": null, "addr:unit": null }, "geometry": { "type": "Polygon", "coordinates": [ [ [ -78.0830094, 39.2882588 ], [ -78.0830303, 39.2882026 ], [ -78.0831352, 39.2882262 ], [ -78.0831142, 39.2882824 ], [ -78.0830094, 39.2882588 ] ] ] } },
{ "type": "Feature", "properties": { "element": "way", "id": 1413096566, "building": "yes", "amenity": null, "brand": null, "brand:wikidata": null, "check_date": null, "hgv": null, "name": null, "addr:city": null, "addr:housenumber": null, "addr:postcode": null, "addr:state": null, "addr:street": null, "operator": null, "operator:type": null, "operator:wikidata": null, "fuel:diesel": null, "fuel:octane_87": null, "fuel:octane_89": null, "fuel:octane_93": null, "layer": null, "self_service": null, "shop": null, "addr:county": null, "source": null, "ele": null, "gnis:feature_id": null, "religion": null, "addr:unit": null }, "geometry": { "type": "Polygon", "coordinates": [ [ [ -78.0827148, 39.2882942 ], [ -78.0827304, 39.2882615 ], [ -78.0828113, 39.2882847 ], [ -78.082795800000014, 39.2883175 ], [ -78.0827148, 39.2882942 ] ] ] } },
{ "type": "Feature", "properties": { "element": "way", "id": 1413096589, "building": "yes", "amenity": null, "brand": null, "brand:wikidata": null, "check_date": null, "hgv": null, "name": null, "addr:city": null, "addr:housenumber": null, "addr:postcode": null, "addr:state": null, "addr:street": null, "operator": null, "operator:type": null, "operator:wikidata": null, "fuel:diesel": null, "fuel:octane_87": null, "fuel:octane_89": null, "fuel:octane_93": null, "layer": null, "self_service": null, "shop": null, "addr:county": null, "source": null, "ele": null, "gnis:feature_id": null, "religion": null, "addr:unit": null }, "geometry": { "type": "Polygon", "coordinates": [ [ [ -78.0826786, 39.2884617 ], [ -78.0826993, 39.288385799999986 ], [ -78.0828319, 39.2884102 ], [ -78.0828084, 39.2884856 ], [ -78.0826786, 39.2884617 ] ] ] } },
{ "type": "Feature", "properties": { "element": "way", "id": 1413096611, "building": "yes", "amenity": null, "brand": null, "brand:wikidata": null, "check_date": null, "hgv": null, "name": null, "addr:city": null, "addr:housenumber": null, "addr:postcode": null, "addr:state": null, "addr:street": null, "operator": null, "operator:type": null, "operator:wikidata": null, "fuel:diesel": null, "fuel:octane_87": null, "fuel:octane_89": null, "fuel:octane_93": null, "layer": null, "self_service": null, "shop": null, "addr:county": null, "source": null, "ele": null, "gnis:feature_id": null, "religion": null, "addr:unit": null }, "geometry": { "type": "Polygon", "coordinates": [ [ [ -78.0827711, 39.2886031 ], [ -78.0827785, 39.2885693 ], [ -78.0828367, 39.288577 ], [ -78.0828293, 39.2886108 ], [ -78.0827711, 39.2886031 ] ] ] } },
{ "type": "Feature", "properties": { "element": "way", "id": 1413096620, "building": "yes", "amenity": null, "brand": null, "brand:wikidata": null, "check_date": null, "hgv": null, "name": null, "addr:city": null, "addr:housenumber": null, "addr:postcode": null, "addr:state": null, "addr:street": null, "operator": null, "operator:type": null, "operator:wikidata": null, "fuel:diesel": null, "fuel:octane_87": null, "fuel:octane_89": null, "fuel:octane_93": null, "layer": null, "self_service": null, "shop": null, "addr:county": null, "source": null, "ele": null, "gnis:feature_id": null, "religion": null, "addr:unit": null }, "geometry": { "type": "Polygon", "coordinates": [ [ [ -78.0826925, 39.2886967 ], [ -78.0827069, 39.288632 ], [ -78.082771, 39.2886407 ], [ -78.0827565, 39.2887053 ], [ -78.0826925, 39.2886967 ] ] ] } },
{ "type": "Feature", "properties": { "element": "way", "id": 1413096625, "building": "yes", "amenity": null, "brand": null, "brand:wikidata": null, "check_date": null, "hgv": null, "name": null, "addr:city": null, "addr:housenumber": null, "addr:postcode": null, "addr:state": null, "addr:street": null, "operator": null, "operator:type": null, "operator:wikidata": null, "fuel:diesel": null, "fuel:octane_87": null, "fuel:octane_89": null, "fuel:octane_93": null, "layer": null, "self_service": null, "shop": null, "addr:county": null, "source": null, "ele": null, "gnis:feature_id": null, "religion": null, "addr:unit": null }, "geometry": { "type": "Polygon", "coordinates": [ [ [ -78.0827617, 39.2887077 ], [ -78.0827707, 39.2886624 ], [ -78.0828156, 39.2886687 ], [ -78.0828069, 39.288712399999987 ], [ -78.0827617, 39.2887077 ] ] ] } },
{ "type": "Feature", "properties": { "element": "way", "id": 1413096670, "building": "yes", "amenity": null, "brand": null, "brand:wikidata": null, "check_date": null, "hgv": null, "name": null, "addr:city": null, "addr:housenumber": null, "addr:postcode": null, "addr:state": null, "addr:street": null, "operator": null, "operator:type": null, "operator:wikidata": null, "fuel:diesel": null, "fuel:octane_87": null, "fuel:octane_89": null, "fuel:octane_93": null, "layer": null, "self_service": null, "shop": null, "addr:county": null, "source": null, "ele": null, "gnis:feature_id": null, "religion": null, "addr:unit": null }, "geometry": { "type": "Polygon", "coordinates": [ [ [ -78.0828365, 39.2889746 ], [ -78.0828379, 39.2889701 ], [ -78.0827977, 39.2889629 ], [ -78.0827957, 39.2889695 ], [ -78.0827656, 39.2889598 ], [ -78.0827886, 39.2888825 ], [ -78.0829036, 39.2889032 ], [ -78.08288, 39.2889824 ], [ -78.0828365, 39.2889746 ] ] ] } }
]
}
