{"type":"FeatureCollection","features":[{"type":"Feature","properties":{"name":"Downstream building 1","height":16},"geometry":{"type":"Polygon","coordinates":[[[-76.5882,39.2837],[-76.5878,39.2837],[-76.5878,39.2834],[-76.5882,39.2834],[-76.5882,39.2837]]]}},{"type":"Feature","properties":{"name":"Downstream building 2","height":22},"geometry":{"type":"Polygon","coordinates":[[[-76.5875,39.2831],[-76.5871,39.2831],[-76.5871,39.2828],[-76.5875,39.2828],[-76.5875,39.2831]]]}},{"type":"Feature","properties":{"name":"Community school","height":12},"geometry":{"type":"Polygon","coordinates":[[[-76.5869,39.2825],[-76.5863,39.2825],[-76.5863,39.2821],[-76.5869,39.2821],[-76.5869,39.2825]]]}}]}
